{
"type": "FeatureCollection",
"name": "odisha_land",
"crs": { "type": "name", "properties": { "name": "urn:ogc:def:crs:OGC:1.3:CRS84" } },
"features": [
{ "type": "Feature", "properties": { }, "geometry": { "type": "Polygon", "coordinates": [ [ [ 84.6, 19.05 ], [ 84.750424065438054, 19.05009095153094 ], [ 84.751199664153219, 19.051665332385465 ], [ 84.75458412229591, 19.055834569916403 ], [ 84.757857075222901, 19.062469727977223 ], [ 84.767060622937734, 19.071668881013949 ], [ 84.767029475312825, 19.072524961615756 ], [ 84.769584480024704, 19.075806886845992 ], [ 84.773718097517417, 19.085830918062744 ], [ 84.776224137569599, 19.089139568324633 ], [ 84.77958624636652, 19.095779213511463 ], [ 84.783773372935443, 19.101611703947274 ], [ 84.786225854983059, 19.104108802237675 ], [ 84.787086460369082, 19.106668329584259 ], [ 84.792031643498817, 19.111640251777015 ], [ 84.792892240856446, 19.114110560066219 ], [ 84.790832136381937, 19.114556466243936 ], [ 84.786613833776428, 19.110445221641413 ], [ 84.779974190689586, 19.107082990503436 ], [ 84.774971091474839, 19.105361855719526 ], [ 84.768304761489247, 19.098749005772557 ], [ 84.765000541378626, 19.098695492361148 ], [ 84.764135460227678, 19.099556030036073 ], [ 84.761665138877461, 19.099582779256753 ], [ 84.760412171578722, 19.098303024754095 ], [ 84.76122369152624, 19.091667879977184 ], [ 84.759551562237121, 19.089973418039069 ], [ 84.759551562237121, 19.086638070569464 ], [ 84.758307472033579, 19.085362774021657 ], [ 84.756666490369696, 19.085416260172249 ], [ 84.75458412229591, 19.083307135552307 ], [ 84.754552888189224, 19.080805513810592 ], [ 84.753304306733199, 19.079583711805238 ], [ 84.749968938645821, 19.079583738595414 ], [ 84.747083861236874, 19.076640787589472 ], [ 84.747083861236888, 19.075833661786085 ], [ 84.745835355747047, 19.074558312670852 ], [ 84.74497030324919, 19.07538770183978 ], [ 84.741220183276198, 19.075806851115342 ], [ 84.742111990712928, 19.077501333066333 ], [ 84.742058514537192, 19.082473244408057 ], [ 84.742941383063112, 19.083307106927382 ], [ 84.742919068446014, 19.085804204107529 ], [ 84.740836677895643, 19.087917823933275 ], [ 84.736662981740608, 19.087917778507389 ], [ 84.735833578100412, 19.08711071941806 ], [ 84.730834903437511, 19.087057213675504 ], [ 84.727468331702028, 19.088720444343448 ], [ 84.726250966747742, 19.090834031684903 ], [ 84.728333329870395, 19.092916426138814 ], [ 84.733278499394558, 19.09205584104178 ], [ 84.737050898768743, 19.094972123347091 ], [ 84.736221500749181, 19.098303083694976 ], [ 84.740386302854844, 19.102472324959471 ], [ 84.739556953168446, 19.105000623337187 ], [ 84.741220183276198, 19.106668296476062 ], [ 84.741220183276198, 19.108331577031652 ], [ 84.743699437313964, 19.110833105873535 ], [ 84.743752911955966, 19.11336145971632 ], [ 84.745804116861009, 19.117058009015551 ], [ 84.748336881662595, 19.117084757709787 ], [ 84.750829532915915, 19.115390296269329 ], [ 84.754133696141636, 19.11535912432872 ], [ 84.755774670851963, 19.114583244853435 ], [ 84.757500372452455, 19.112888783905149 ], [ 84.759194790371907, 19.112915533819471 ], [ 84.759970714545759, 19.112054923837434 ], [ 84.763359592619523, 19.112054913903549 ], [ 84.769196544724679, 19.109584540593083 ], [ 84.772469536667529, 19.10791690842435 ], [ 84.777472695922214, 19.107916898426886 ], [ 84.782083347869815, 19.111640266792126 ], [ 84.781218286681693, 19.115804987408936 ], [ 84.78163743921624, 19.116224157673109 ], [ 84.782502494046994, 19.115359161412954 ], [ 84.784972869313719, 19.11541709628386 ], [ 84.787024027695864, 19.119167195210178 ], [ 84.787086460369082, 19.124946141485374 ], [ 84.788749740354476, 19.126636203311168 ], [ 84.787889080444842, 19.127470078607967 ], [ 84.788308263578429, 19.127889164345046 ], [ 84.790029478115898, 19.127055342165562 ], [ 84.793333682126175, 19.127889195329235 ], [ 84.794198718737846, 19.12624823698561 ], [ 84.795389316963522, 19.126667358127303 ], [ 84.795389316963522, 19.127470013090626 ], [ 84.796281154521665, 19.128335078788009 ], [ 84.796249943229611, 19.129998304403586 ], [ 84.797498461192191, 19.13122018129414 ], [ 84.797922111888752, 19.127501262952233 ], [ 84.794609017317967, 19.122471394698728 ], [ 84.792914535952065, 19.118306582929026 ], [ 84.793355977049089, 19.116250901300852 ], [ 84.79497464476816, 19.116224184404732 ], [ 84.796218731920476, 19.117499514030989 ], [ 84.798751489969064, 19.12416587297502 ], [ 84.798720280030551, 19.12578006961035 ], [ 84.800445956955244, 19.128335067948463 ], [ 84.800392455784831, 19.131639274662984 ], [ 84.801221797892111, 19.132473179409676 ], [ 84.801248548094037, 19.134194319310907 ], [ 84.805391095108106, 19.141641061600051 ], [ 84.809587072079566, 19.149141238866903 ], [ 84.813751935975048, 19.15330611032859 ], [ 84.81455012097075, 19.155000487209268 ], [ 84.815446354436801, 19.157470870891324 ], [ 84.820440567721619, 19.162474021252592 ], [ 84.821252108833548, 19.165002302674548 ], [ 84.830415583217288, 19.174165748920526 ], [ 84.83208324680345, 19.177443199300811 ], [ 84.835418665798443, 19.180805355416311 ], [ 84.837059608274075, 19.18497462352456 ], [ 84.842058286838423, 19.189946516042518 ], [ 84.842027100662193, 19.190807073182746 ], [ 84.86416648257196, 19.212861835385002 ], [ 84.864942407964108, 19.21288857105873 ], [ 84.886640393549825, 19.234528622999331 ], [ 84.887496537184134, 19.234528565733179 ], [ 84.892499590917055, 19.239585185092814 ], [ 84.893333469649406, 19.239585209996903 ], [ 84.904976202716412, 19.251250204563817 ], [ 84.905805606113574, 19.251223459071308 ], [ 84.90746882638534, 19.252891135642869 ], [ 84.912529943458026, 19.255415025201142 ], [ 84.915388197783102, 19.258304501351013 ], [ 84.91500022484783, 19.259584258683912 ], [ 84.911638104790029, 19.259584262104596 ], [ 84.910001626820687, 19.26039137342169 ], [ 84.907058628211189, 19.263334344507665 ], [ 84.908721811574793, 19.264997644703143 ], [ 84.907080878479164, 19.269166935950857 ], [ 84.907058628211189, 19.271637256543098 ], [ 84.908721811574793, 19.274138823750494 ], [ 84.909140976909541, 19.278722702577337 ], [ 84.910447481383599, 19.277469775521315 ], [ 84.910385104865497, 19.275806517762479 ], [ 84.911245656349763, 19.275026193670818 ], [ 84.911223407723142, 19.262442586635604 ], [ 84.912498716629401, 19.261278732882769 ], [ 84.91583408924842, 19.261247487325658 ], [ 84.916641166086592, 19.259584298586756 ], [ 84.917475085687542, 19.259611015037216 ], [ 84.924163714105646, 19.266223909847504 ], [ 84.924944059349968, 19.266223872343954 ], [ 84.931695108092086, 19.272890266606147 ], [ 84.934999322520113, 19.274611436657569 ], [ 84.941612173265554, 19.281219886663024 ], [ 84.942472804143861, 19.281219830511919 ], [ 84.945808150639962, 19.284582011073326 ], [ 84.946642035797311, 19.284528537280554 ], [ 84.952501277115758, 19.290387764209939 ], [ 84.959997046384416, 19.294556989895998 ], [ 84.963332465538215, 19.297861240399513 ], [ 84.965807267234695, 19.298748572606932 ], [ 84.968308790031173, 19.301250100845344 ], [ 84.969169409419749, 19.301196636887685 ], [ 84.975831341750535, 19.307916518105714 ], [ 84.982497642176497, 19.312054505309955 ], [ 84.993333283750374, 19.320388551012506 ], [ 84.994162655385168, 19.320388609350513 ], [ 84.999999646974175, 19.325418430782761 ], [ 85.000833521300777, 19.326221060231997 ], [ 85.001640569092416, 19.326221113478447 ], [ 85.004975973615231, 19.329525277063517 ], [ 85.015829478332719, 19.336249570506421 ], [ 85.02916660370434, 19.342889219578858 ], [ 85.035025872976533, 19.347861086821517 ], [ 85.042472565065424, 19.35122331089477 ], [ 85.05577852777482, 19.359557361044899 ], [ 85.059996873733851, 19.362085627263909 ], [ 85.064139382072057, 19.362861498466529 ], [ 85.069137972046619, 19.365389867237322 ], [ 85.072500171411917, 19.367891387071868 ], [ 85.075028461781102, 19.368720811985341 ], [ 85.07746758953158, 19.371222377088529 ], [ 85.079942418224306, 19.372109691953241 ], [ 85.082082760461844, 19.374196575969727 ], [ 85.081641279029412, 19.375387137124392 ], [ 85.079170962246522, 19.375413915049752 ], [ 85.077498803843653, 19.374526487421953 ], [ 85.074974983102948, 19.372056194851346 ], [ 85.072442174122543, 19.371222377885839 ], [ 85.068335384739683, 19.367057499243355 ], [ 85.066636435133404, 19.366223689476978 ], [ 85.056607925096515, 19.366223699901315 ], [ 85.055832024868437, 19.367084314814811 ], [ 85.05249664058347, 19.367057556532284 ], [ 85.051636032641895, 19.367891417173723 ], [ 85.050004027376829, 19.367891372971719 ], [ 85.048309513143494, 19.369581419612423 ], [ 85.047078821909253, 19.369973832349583 ], [ 85.047078821909253, 19.370834352145746 ], [ 85.04413578564241, 19.37372384761818 ], [ 85.039168411179986, 19.375387141504635 ], [ 85.036225354533101, 19.379137199077704 ], [ 85.036225354533101, 19.38247268330176 ], [ 85.036635641244615, 19.382887356965497 ], [ 85.038307756375886, 19.381219622039296 ], [ 85.039556319885293, 19.38249940843189 ], [ 85.037888602538345, 19.384969703542144 ], [ 85.037942116774403, 19.391667315847055 ], [ 85.038718027798296, 19.391609390632009 ], [ 85.038749263798664, 19.389165731900768 ], [ 85.040412436679063, 19.385776817450804 ], [ 85.04039015989197, 19.384113607458318 ], [ 85.047471193888015, 19.377081568457175 ], [ 85.050802202013259, 19.376278941691922 ], [ 85.051613760331676, 19.375413880147363 ], [ 85.056639151090266, 19.375413847775494 ], [ 85.063278715980289, 19.370361695000206 ], [ 85.065802590964452, 19.37038852416519 ], [ 85.066636435133404, 19.371275840653464 ], [ 85.069967408410974, 19.371249102027399 ], [ 85.075362880617661, 19.37497245594599 ], [ 85.076250296943783, 19.378303385226392 ], [ 85.079170962246522, 19.381219627120679 ], [ 85.080865410302962, 19.382084674180444 ], [ 85.081222133809604, 19.381638789012634 ], [ 85.079558909764515, 19.379137272895644 ], [ 85.07958125013559, 19.377500746265113 ], [ 85.081641279029412, 19.377054857846122 ], [ 85.08330459931139, 19.377861912950454 ], [ 85.087915246794608, 19.383306515563689 ], [ 85.09122395853791, 19.389999623336312 ], [ 85.09122395853791, 19.394998299248119 ], [ 85.095388696864674, 19.399974613456116 ], [ 85.095388696864674, 19.400835232810209 ], [ 85.09955795414092, 19.405000024300371 ], [ 85.099611488397059, 19.405807145428689 ], [ 85.109167319087831, 19.415416464864769 ], [ 85.110032422488743, 19.41544320148207 ], [ 85.113305378057206, 19.418751915722069 ], [ 85.116667521909719, 19.420388368117635 ], [ 85.124136552761343, 19.427915353153995 ], [ 85.129135215092489, 19.430443654074885 ], [ 85.133331223439384, 19.43460847006374 ], [ 85.134165084408522, 19.434554967751371 ], [ 85.144166797927241, 19.443722888247063 ], [ 85.144942732500823, 19.443722845053362 ], [ 85.148309368227359, 19.447027049850597 ], [ 85.153357039372182, 19.44955534950871 ], [ 85.158302199980625, 19.45372015174344 ], [ 85.16247590776338, 19.456248492527198 ], [ 85.165802402919567, 19.459552672939218 ], [ 85.16666298449509, 19.459552625353432 ], [ 85.17077429144058, 19.46372193030739 ], [ 85.174956943841323, 19.465804326682154 ], [ 85.179139596067984, 19.467891180836403 ], [ 85.181663427183551, 19.470388301121048 ], [ 85.184133769455372, 19.471248903606146 ], [ 85.185805957902957, 19.472889874888754 ], [ 85.188329800699265, 19.473723690677204 ], [ 85.190862541240918, 19.476194004318433 ], [ 85.193306145421715, 19.477081425245888 ], [ 85.198331527835677, 19.48208448749131 ], [ 85.204168469902697, 19.485388727129358 ], [ 85.20664325877307, 19.487890291321246 ], [ 85.212449052074319, 19.491221163743653 ], [ 85.218330570008305, 19.497084897479546 ], [ 85.22086335534901, 19.497887567543746 ], [ 85.223356042261031, 19.500389150499849 ], [ 85.224136317151718, 19.500389109259867 ], [ 85.229166237007306, 19.505445743287044 ], [ 85.230026857877476, 19.505387751870042 ], [ 85.23163658491805, 19.507055435909599 ], [ 85.234945245780125, 19.508776668965819 ], [ 85.240835656354051, 19.513695092579486 ], [ 85.24827788772852, 19.517891083068783 ], [ 85.253303309884018, 19.522082632596831 ], [ 85.258306477836271, 19.524530646989341 ], [ 85.262444510430541, 19.527915140124485 ], [ 85.263358617842883, 19.527915185655417 ], [ 85.266671685476652, 19.531277282000602 ], [ 85.269195533821076, 19.532026426529317 ], [ 85.274171912746226, 19.536222465733722 ], [ 85.278336692551392, 19.537916939427685 ], [ 85.286666329001733, 19.543749396558646 ], [ 85.289136695595744, 19.544556533186814 ], [ 85.29166495517704, 19.547058083303117 ], [ 85.29250328942733, 19.547058024083245 ], [ 85.294973629493043, 19.549555153005699 ], [ 85.297501935222598, 19.550388979118395 ], [ 85.299111657052293, 19.552056763548642 ], [ 85.300025784377439, 19.552056737167028 ], [ 85.304168321747426, 19.555387670339694 ], [ 85.306638608725507, 19.556248247122944 ], [ 85.311668465590543, 19.560444307096287 ], [ 85.316667174913547, 19.562887856597531 ], [ 85.319971340038762, 19.565389437165781 ], [ 85.327498338519504, 19.568720408449387 ], [ 85.329941862151443, 19.571221960542083 ], [ 85.333335279555882, 19.572916377783617 ], [ 85.337446590793604, 19.577085663212284 ], [ 85.338302753010666, 19.577085694652776 ], [ 85.343279077727317, 19.581223746311313 ], [ 85.355835903964461, 19.5870562508048 ], [ 85.357499161756195, 19.58875061976363 ], [ 85.369110676978465, 19.594583209357292 ], [ 85.382501338100909, 19.601249513376921 ], [ 85.385863515836903, 19.603751122546942 ], [ 85.395807257191791, 19.608696266777493 ], [ 85.403334257030536, 19.612053921112654 ], [ 85.409162284556302, 19.616223219701098 ], [ 85.41163710701889, 19.61705699684444 ], [ 85.414169848219927, 19.619527349186249 ], [ 85.422530637114974, 19.623750190136324 ], [ 85.425834836344265, 19.625391103302569 ], [ 85.427475800110187, 19.625391135413413 ], [ 85.430833539632872, 19.627888205301961 ], [ 85.435805414176173, 19.62874877995365 ], [ 85.439163109509039, 19.630416492516421 ], [ 85.441664658234316, 19.630389743744743 ], [ 85.446663316753373, 19.63291802088041 ], [ 85.448282009370573, 19.632918038613138 ], [ 85.453307359610946, 19.63541513450873 ], [ 85.455001859230435, 19.635388373715969 ], [ 85.457472227433968, 19.637082869017522 ], [ 85.459135441236498, 19.637029373064621 ], [ 85.460776418199785, 19.638750552945929 ], [ 85.462524336644222, 19.638719360890949 ], [ 85.464143026419052, 19.640387052300802 ], [ 85.467473947937464, 19.642085940442659 ], [ 85.469168396664926, 19.642054796837868 ], [ 85.474167029175689, 19.644556305947489 ], [ 85.478300639048399, 19.647053449085629 ], [ 85.481636034835518, 19.647026675496686 ], [ 85.482474353758079, 19.647887290344872 ], [ 85.48663917436761, 19.648721092144758 ], [ 85.487504229596183, 19.649608454841758 ], [ 85.527444411576909, 19.669554034184781 ], [ 85.530828857127361, 19.672055571095292 ], [ 85.539140642251084, 19.676251629450018 ], [ 85.540830637962614, 19.676251648298464 ], [ 85.553338392847962, 19.682917977927403 ], [ 85.566635405371414, 19.688750450881205 ], [ 85.578309357739784, 19.694582934363506 ], [ 85.58000384972226, 19.694582996167387 ], [ 85.587526366441622, 19.699581589720147 ], [ 85.592025540556506, 19.701637228780129 ], [ 85.592088011161152, 19.703278240336218 ], [ 85.589996697372513, 19.705387362351949 ], [ 85.589162801751215, 19.705387336101708 ], [ 85.582496427971805, 19.698747767749456 ], [ 85.574996284941363, 19.695416803732329 ], [ 85.573333037737498, 19.693722389415807 ], [ 85.57163857018061, 19.693722357044237 ], [ 85.569168177075923, 19.692081396496466 ], [ 85.565003385231265, 19.692054631266693 ], [ 85.560776155278006, 19.688750428042571 ], [ 85.559135240024005, 19.687889817778967 ], [ 85.553338392847962, 19.687889824816239 ], [ 85.551635046439984, 19.687082801335727 ], [ 85.547532671866207, 19.68205737969712 ], [ 85.54582929824798, 19.681250232684597 ], [ 85.543336663931498, 19.681223529540727 ], [ 85.539970053197791, 19.679582510218165 ], [ 85.535774004137124, 19.679609348247194 ], [ 85.534164300408236, 19.678721966402893 ], [ 85.532501043735536, 19.680443143294664 ], [ 85.531671596026356, 19.68044316110884 ], [ 85.529558045362066, 19.678360730321543 ], [ 85.527863530548146, 19.679306052696024 ], [ 85.526360847385263, 19.683502125847408 ], [ 85.526641758981029, 19.685388278039508 ], [ 85.528336233737846, 19.686248938531381 ], [ 85.530030655077326, 19.687082763522071 ], [ 85.532469773702701, 19.690418203595129 ], [ 85.534164300408221, 19.690444882113436 ], [ 85.537499693745943, 19.692054668021168 ], [ 85.539582058896798, 19.694141494829402 ], [ 85.540001240307802, 19.696223948412829 ], [ 85.541642190931682, 19.69622395777904 ], [ 85.54247156324017, 19.697057779292518 ], [ 85.54499989926255, 19.697057778834321 ], [ 85.549164673953555, 19.699554870007823 ], [ 85.554970453954454, 19.699554833606019 ], [ 85.564165095667875, 19.703750841780785 ], [ 85.57747104087106, 19.711251131556793 ], [ 85.579169955362616, 19.711219891416025 ], [ 85.585809586045002, 19.714613278554744 ], [ 85.590834975011106, 19.714528505697519 ], [ 85.592088011161152, 19.716668873704702 ], [ 85.594968564488184, 19.718751288318359 ], [ 85.601639425817794, 19.71875125381753 ], [ 85.604163244178196, 19.722889352299831 ], [ 85.612501785869384, 19.724557090576024 ], [ 85.615837167480535, 19.726251485661603 ], [ 85.617469206098832, 19.724557024540879 ], [ 85.620804591089367, 19.724557089343801 ], [ 85.622887012503284, 19.726639409360523 ], [ 85.622887012503284, 19.727500040509735 ], [ 85.625776493471136, 19.729555663370924 ], [ 85.627470971048751, 19.730416335307567 ], [ 85.630806358160058, 19.730443059722873 ], [ 85.632059397787529, 19.732529928581449 ], [ 85.633276726833145, 19.732917836714897 ], [ 85.633780573567378, 19.731664830931667 ], [ 85.630387181677449, 19.728307109470752 ], [ 85.630775145506519, 19.727058560500065 ], [ 85.633330209311637, 19.727085314155246 ], [ 85.638725703908804, 19.731638108884912 ], [ 85.639969853833918, 19.73624878633041 ], [ 85.642440189822551, 19.736195344072673 ], [ 85.643363184460668, 19.737082619870193 ], [ 85.644995243208058, 19.737082618444383 ], [ 85.648308366217279, 19.740386858736866 ], [ 85.649949288903784, 19.73872360225231 ], [ 85.652495437301909, 19.738750349530445 ], [ 85.655830825790872, 19.742915165838809 ], [ 85.659166240378084, 19.742888380776719 ], [ 85.660833947638352, 19.741220664682668 ], [ 85.663308723514191, 19.74124744592617 ], [ 85.668334182361662, 19.743749036940375 ], [ 85.670809001009374, 19.743695507175261 ], [ 85.671638329435893, 19.744582872253041 ], [ 85.67497377130384, 19.744529330906062 ], [ 85.675004958049072, 19.743749051219389 ], [ 85.668334182361662, 19.742081307856111 ], [ 85.659942137945919, 19.737889750432387 ], [ 85.654974677243132, 19.737916491464148 ], [ 85.651612503054892, 19.734554362042143 ], [ 85.649191276868919, 19.734527552134956 ], [ 85.645806784933512, 19.732917861652162 ], [ 85.645387648030706, 19.731638121207027 ], [ 85.644143546229955, 19.731223361673074 ], [ 85.638337797944232, 19.72872184162129 ], [ 85.633330209311637, 19.725417690519926 ], [ 85.630775145506519, 19.725390941148653 ], [ 85.629999293450382, 19.726251501977934 ], [ 85.627502185636388, 19.726224751387821 ], [ 85.625829983472784, 19.725417653430743 ], [ 85.621696428659348, 19.721248398812001 ], [ 85.618307523479004, 19.719553919538871 ], [ 85.613357910823666, 19.717056831776919 ], [ 85.608328048797716, 19.716222970181956 ], [ 85.60580419179513, 19.714582028836201 ], [ 85.60539392038541, 19.713333504381126 ], [ 85.606664817835139, 19.712053682862326 ], [ 85.608305767070391, 19.712084915961846 ], [ 85.614998889747966, 19.715389090960002 ], [ 85.616639818231789, 19.715415902682533 ], [ 85.619163633767059, 19.717110364364768 ], [ 85.620804591089367, 19.717056844081128 ], [ 85.626663855858183, 19.720418975158022 ], [ 85.630837570795308, 19.72119488033097 ], [ 85.633307938022128, 19.722889350202671 ], [ 85.638306589700633, 19.725390892366267 ], [ 85.640001061103334, 19.72541762596952 ], [ 85.641691009378206, 19.727085316166729 ], [ 85.646698596304176, 19.729582458287041 ], [ 85.658332406333841, 19.735414987066459 ], [ 85.659973333510067, 19.735361403760475 ], [ 85.660802752578917, 19.736222054897802 ], [ 85.664971990354118, 19.737055898520659 ], [ 85.669136826163864, 19.739557446402532 ], [ 85.671691851746274, 19.739584226757987 ], [ 85.672472189939043, 19.7403868325963 ], [ 85.67585663120957, 19.742081303489126 ], [ 85.677497644419304, 19.742027842199068 ], [ 85.678335957489693, 19.742915122050835 ], [ 85.682442787326053, 19.743749012564912 ], [ 85.683334611273295, 19.744609645003564 ], [ 85.685836151175252, 19.74455609615913 ], [ 85.690781300906707, 19.747053219766016 ], [ 85.693336303707326, 19.747084422536318 ], [ 85.695806667698804, 19.748720893966656 ], [ 85.69914207969218, 19.748720933959646 ], [ 85.705001335405257, 19.751249204420212 ], [ 85.706664627925278, 19.751195747398278 ], [ 85.707471704211272, 19.752056358041539 ], [ 85.709999983369613, 19.75208307164721 ], [ 85.715025408072748, 19.754526635891835 ], [ 85.716635143904739, 19.754526653205303 ], [ 85.717500242190155, 19.755418529159215 ], [ 85.721665027932843, 19.756252362372425 ], [ 85.722503347674191, 19.757108505753489 ], [ 85.725776331484639, 19.758749436542427 ], [ 85.730003557723549, 19.759583315607141 ], [ 85.734168298903398, 19.762058126688299 ], [ 85.735809308006267, 19.762084831071739 ], [ 85.740807943375913, 19.764581935255947 ], [ 85.742448902928231, 19.764528449400231 ], [ 85.743309509812789, 19.765389047421813 ], [ 85.749168729907822, 19.76711027620464 ], [ 85.751639071883915, 19.768724410145403 ], [ 85.756668991678254, 19.769553866745749 ], [ 85.757498385198005, 19.770445681634268 ], [ 85.759139295741264, 19.770387697681045 ], [ 85.762497002696861, 19.772082124313314 ], [ 85.765832436764057, 19.773749871076724 ], [ 85.767473322846001, 19.773723088806708 ], [ 85.768302781233388, 19.774583689808946 ], [ 85.769997169927564, 19.774530225266638 ], [ 85.770857797164936, 19.775417569205793 ], [ 85.773279101203244, 19.775417538422669 ], [ 85.77580298327122, 19.777111997649321 ], [ 85.778358026813308, 19.777054037903113 ], [ 85.779138357937313, 19.777861143700758 ], [ 85.780828331917022, 19.777887885859464 ], [ 85.781671108959813, 19.778748485892315 ], [ 85.783303134924452, 19.778748462276042 ], [ 85.786638582244052, 19.780389422329101 ], [ 85.789171363657118, 19.780416188253906 ], [ 85.789947234256587, 19.781223338844782 ], [ 85.791663992044803, 19.781223325078535 ], [ 85.792502295564304, 19.782083876114303 ], [ 85.794134298652963, 19.782052663474186 ], [ 85.794977097337878, 19.782917754112802 ], [ 85.796667110401714, 19.782917793901952 ], [ 85.800002492960317, 19.784554287138192 ], [ 85.802472877222229, 19.784554212875793 ], [ 85.803337898601882, 19.785388066426261 ], [ 85.805808282563248, 19.785388129186661 ], [ 85.809134722459348, 19.787082563563899 ], [ 85.810838114621916, 19.787029028505586 ], [ 85.811667515475122, 19.787889672968987 ], [ 85.815832297962615, 19.788723550945829 ], [ 85.820808659047685, 19.791220588955916 ], [ 85.823332528601341, 19.791251856773094 ], [ 85.824144073134221, 19.792054479065989 ], [ 85.829138241815173, 19.792888331598807 ], [ 85.834168106284451, 19.795389843799665 ], [ 85.835809049863201, 19.795416588697506 ], [ 85.83997387092181, 19.797891465003644 ], [ 85.841668373732048, 19.797918132247645 ], [ 85.844138673734506, 19.799581416543663 ], [ 85.845833120076961, 19.799612669473781 ], [ 85.850831784770577, 19.802056242692853 ], [ 85.853333359267253, 19.802056225159479 ], [ 85.854162713561635, 19.802916829170218 ], [ 85.859968450685969, 19.803692681003007 ], [ 85.860833540070999, 19.804584550425258 ], [ 85.864164535607415, 19.804584569995569 ], [ 85.867468696272908, 19.806221034403332 ], [ 85.869970256866495, 19.806247810689715 ], [ 85.872498552472422, 19.807915477767686 ], [ 85.875000106791447, 19.807888694882095 ], [ 85.877523944179174, 19.809556385661661 ], [ 85.87994525230728, 19.809583180399432 ], [ 85.880774653352901, 19.810390297155735 ], [ 85.88752575061612, 19.81122410951609 ], [ 85.888306099036214, 19.812084747943675 ], [ 85.890776384119178, 19.812111526825024 ], [ 85.891694965741436, 19.812914121187138 ], [ 85.894111793808037, 19.812860659864008 ], [ 85.894972416986988, 19.813747958463154 ], [ 85.899137214516514, 19.813694443036198 ], [ 85.899971070455038, 19.814581836824264 ], [ 85.902472636378164, 19.814581792717409 ], [ 85.906637459708662, 19.816222801256622 ], [ 85.910026384929537, 19.817917211257157 ], [ 85.912443222448417, 19.817917278463089 ], [ 85.913308223677873, 19.818719838121584 ], [ 85.918333667954855, 19.819553764827372 ], [ 85.919586677536259, 19.820833539649602 ], [ 85.917526546924321, 19.821221414138098 ], [ 85.91327702179079, 19.819526998631783 ], [ 85.911279360119309, 19.821636148649205 ], [ 85.911613778180879, 19.82377652820243 ], [ 85.913330533015696, 19.821252678575913 ], [ 85.91497149125135, 19.821252623886906 ], [ 85.917504239381714, 19.822889162014267 ], [ 85.9191363307188, 19.822889141528417 ], [ 85.920808459618115, 19.821252674994465 ], [ 85.924192954494501, 19.821252658901489 ], [ 85.924973300665883, 19.822055248073561 ], [ 85.931639613369583, 19.822915868289662 ], [ 85.93247349551757, 19.823723003151454 ], [ 85.934975061840163, 19.823722976829149 ], [ 85.935804446224267, 19.824610334463081 ], [ 85.938363938091385, 19.824556809095458 ], [ 85.944169674930322, 19.827053920541601 ], [ 85.949975465506569, 19.827887815988277 ], [ 85.950804844662855, 19.828694877873815 ], [ 85.953306387211413, 19.828721625944077 ], [ 85.954140233962448, 19.829582275690022 ], [ 85.963303716554393, 19.830389327064562 ], [ 85.964142000691425, 19.83119200856877 ], [ 85.967477391237395, 19.831223191580012 ], [ 85.968306802795254, 19.832083782404474 ], [ 85.972502826883087, 19.832057065109463 ], [ 85.973274267468597, 19.832917695986058 ], [ 85.974977613800846, 19.832917691215826 ], [ 85.979164684835069, 19.834554194690735 ], [ 85.988305914587315, 19.835414749370806 ], [ 85.989135304837816, 19.836275358668054 ], [ 85.992470646938031, 19.836221847492634 ], [ 85.993331280222179, 19.837055665030057 ], [ 86.000002066374918, 19.837055703526747 ], [ 86.008331730105198, 19.837916285843178 ], [ 86.009161111252155, 19.838776913251444 ], [ 86.011667082105959, 19.838723436957565 ], [ 86.01249648766418, 19.839526017559365 ], [ 86.014966874284198, 19.839557307854562 ], [ 86.015831882668721, 19.840417889079703 ], [ 86.019162858978106, 19.84039108671308 ], [ 86.019996737209411, 19.84124724313147 ], [ 86.023332115684084, 19.841247304904591 ], [ 86.024192703069389, 19.842081096779669 ], [ 86.028304036322766, 19.842027642993074 ], [ 86.029137844965916, 19.842888209047768 ], [ 86.034974829187419, 19.84372209638321 ], [ 86.035804250046965, 19.844609385359689 ], [ 86.040780573331688, 19.844582679786821 ], [ 86.041641181397083, 19.845389746564969 ], [ 86.048361056551158, 19.846223592917543 ], [ 86.049141403572065, 19.847084179903973 ], [ 86.0549471104909, 19.847918034308481 ], [ 86.057051806683006, 19.849193357406481 ], [ 86.056641624812002, 19.850388463414696 ], [ 86.054166773486614, 19.850388461058294 ], [ 86.048361056551158, 19.847944803221647 ], [ 86.045805979351385, 19.847918072310605 ], [ 86.0441650302471, 19.848720680008373 ], [ 86.043304464251676, 19.849581320470204 ], [ 86.041663513440739, 19.849554585407144 ], [ 86.040388159305081, 19.850834349761257 ], [ 86.040802905747569, 19.85122231161229 ], [ 86.047469205820363, 19.851195526940455 ], [ 86.049163654570307, 19.852943437766019 ], [ 86.057471008717485, 19.852863247899986 ], [ 86.058304813136928, 19.85372381348181 ], [ 86.063276711437624, 19.853750561353305 ], [ 86.064141844322066, 19.854553210262633 ], [ 86.070861665929201, 19.855387105684436 ], [ 86.071641983540502, 19.856220876521199 ], [ 86.073777958934741, 19.855806207238714 ], [ 86.07327848130673, 19.854553183140812 ], [ 86.068337801114282, 19.853723808938131 ], [ 86.065002451632026, 19.852056082533291 ], [ 86.058336083457405, 19.852056130553613 ], [ 86.057916888455267, 19.851668195451062 ], [ 86.05997253709694, 19.849554536645243 ], [ 86.061667041847926, 19.849554530623056 ], [ 86.062532046187528, 19.850415214454628 ], [ 86.066634416069547, 19.850388456371508 ], [ 86.067495059529008, 19.851195520204911 ], [ 86.069969815460311, 19.851195518224252 ], [ 86.070808161557906, 19.852082883828924 ], [ 86.072524939801355, 19.852082904102861 ], [ 86.076689732305852, 19.854584419393127 ], [ 86.078330657318944, 19.854584448714999 ], [ 86.080863440562368, 19.856252170938845 ], [ 86.08327582132523, 19.856220883575276 ], [ 86.08413641995277, 19.857086022052812 ], [ 86.091636601279305, 19.857861864192625 ], [ 86.092497215529903, 19.858722437950384 ], [ 86.096666454847096, 19.859556318284419 ], [ 86.097442339431311, 19.860416932821472 ], [ 86.10247224679388, 19.861250765550682 ], [ 86.103332835104396, 19.862053440246367 ], [ 86.105803225598933, 19.862053412634445 ], [ 86.106668265521364, 19.862918477748945 ], [ 86.109138573342733, 19.86288729630596 ], [ 86.109967966462833, 19.863752300463496 ], [ 86.112474015326853, 19.863752323893731 ], [ 86.115804967162603, 19.865388818127226 ], [ 86.118333263033051, 19.865388791862404 ], [ 86.121610693912857, 19.867083257517312 ], [ 86.129195670336941, 19.867859185055121 ], [ 86.129975957269693, 19.868724238629536 ], [ 86.13416304832981, 19.869558066165858 ], [ 86.135001357557414, 19.870418735121682 ], [ 86.141672235099506, 19.872055175779309 ], [ 86.144998650748761, 19.873722857047355 ], [ 86.148329664720407, 19.87374969050493 ], [ 86.149167975119894, 19.874556709899149 ], [ 86.155000437120435, 19.875390573596931 ], [ 86.15582986503847, 19.87625116278199 ], [ 86.158300211948116, 19.876193204818389 ], [ 86.161635561671787, 19.877887660628414 ], [ 86.165831630885705, 19.878694791412567 ], [ 86.169135829940601, 19.880389280212192 ], [ 86.171690833506318, 19.88038928155849 ], [ 86.174972767760167, 19.88208374757733 ], [ 86.177496592172858, 19.882030214640377 ], [ 86.180832008932768, 19.883720200161658 ], [ 86.1833335837687, 19.883720170569347 ], [ 86.18580834379469, 19.885387903899954 ], [ 86.188309907618589, 19.885414655475095 ], [ 86.18913933828928, 19.886221711289732 ], [ 86.192474770443681, 19.886221726927687 ], [ 86.193335321561236, 19.887028885953786 ], [ 86.201691734508273, 19.889557132241148 ], [ 86.207497416982804, 19.892888111244222 ], [ 86.210832889653048, 19.892914832370458 ], [ 86.214997619489495, 19.894529066899239 ], [ 86.216638616592945, 19.894555815573771 ], [ 86.227469763130983, 19.900388276710384 ], [ 86.232499611840495, 19.901222196625383 ], [ 86.234194076424657, 19.902082801516194 ], [ 86.235389113669129, 19.904138390483521 ], [ 86.234194076424657, 19.904611113917543 ], [ 86.231634527844051, 19.902858655124099 ], [ 86.22666708417222, 19.902916586727883 ], [ 86.222502300606649, 19.909556231742254 ], [ 86.219581592800452, 19.910804742497852 ], [ 86.221641699015336, 19.911277459360665 ], [ 86.222502300606649, 19.912860380061023 ], [ 86.222948219720607, 19.910804734803673 ], [ 86.224134371912868, 19.90955625745941 ], [ 86.225828804947653, 19.90955622473853 ], [ 86.232499611840495, 19.912918357467483 ], [ 86.23496997011074, 19.913721056474177 ], [ 86.236249715341188, 19.915000817277136 ], [ 86.235389113669129, 19.916663997002889 ], [ 86.235808253773328, 19.917917013413959 ], [ 86.240860453530757, 19.917083188889308 ], [ 86.243330793195028, 19.921221245308043 ], [ 86.245390867935413, 19.919165589629642 ], [ 86.245390867935413, 19.918305011124772 ], [ 86.243330793195028, 19.917890326377421 ], [ 86.242082229457964, 19.916695254169216 ], [ 86.245413188829716, 19.914109008625381 ], [ 86.245413188829716, 19.912472499158035 ], [ 86.240838130637101, 19.90877584450724 ], [ 86.23835891077988, 19.907888512127062 ], [ 86.23708355951041, 19.906693510197961 ], [ 86.237502763164855, 19.906220853049497 ], [ 86.240775734996959, 19.90625199425563 ], [ 86.244940495296461, 19.909525005740608 ], [ 86.246635010327211, 19.910390060753169 ], [ 86.249136533284926, 19.910416827270172 ], [ 86.24997039856629, 19.911223964966638 ], [ 86.251664823351007, 19.911223960111307 ], [ 86.259972150131972, 19.915388718389408 ], [ 86.263307592246676, 19.917863573349294 ], [ 86.266692009025903, 19.919553564790732 ], [ 86.269166824999729, 19.922081841877333 ], [ 86.271637182308879, 19.922888984726153 ], [ 86.274192237150245, 19.925417264691493 ], [ 86.276662582038952, 19.926251112725208 ], [ 86.278303525342764, 19.927918825898669 ], [ 86.285027848217823, 19.931223025630352 ], [ 86.286637544632896, 19.932886232782806 ], [ 86.289968522920589, 19.933751346497548 ], [ 86.291609499954546, 19.935361017286972 ], [ 86.29330392793824, 19.935387773939865 ], [ 86.296639345523687, 19.937055540569141 ], [ 86.299194378524149, 19.937055464106926 ], [ 86.299974775603161, 19.937916138035369 ], [ 86.302476300674897, 19.937942848184171 ], [ 86.303305728053289, 19.938750005453155 ], [ 86.308335572400395, 19.941224785063511 ], [ 86.309976495801564, 19.941251554677148 ], [ 86.311666516157402, 19.94291472726314 ], [ 86.316633923183005, 19.943721860937522 ], [ 86.317472250743961, 19.944582499977784 ], [ 86.319969350488364, 19.944555724406847 ], [ 86.320807700105021, 19.945416352203047 ], [ 86.325775137226969, 19.945416284615675 ], [ 86.326635675632389, 19.946223459169079 ], [ 86.329195228370011, 19.946250188934549 ], [ 86.32997113898162, 19.947057243080369 ], [ 86.333306536728614, 19.947057233062107 ], [ 86.336637459089928, 19.948751761901626 ], [ 86.341613859341237, 19.948751720714476 ], [ 86.342474437163105, 19.949554390872017 ], [ 86.347504327150617, 19.949527613698017 ], [ 86.348355987057971, 19.948724998868499 ], [ 86.356667791094281, 19.948693791765407 ], [ 86.357443665844272, 19.949554365835517 ], [ 86.359998717188802, 19.949581111441265 ], [ 86.360863775421649, 19.950388243046643 ], [ 86.368310456228855, 19.950414970229325 ], [ 86.371636978721938, 19.952082690009025 ], [ 86.373750586680558, 19.954945427943585 ], [ 86.374526430150027, 19.956639907243218 ], [ 86.373304679998412, 19.958749044885408 ], [ 86.368332800258315, 19.961250627027407 ], [ 86.364136742319488, 19.961250585609484 ], [ 86.362504692922471, 19.962084462414722 ], [ 86.36163966287279, 19.961223877987173 ], [ 86.354139406679437, 19.961250597945966 ], [ 86.35083075438601, 19.96291831451558 ], [ 86.34330831339642, 19.969584665127979 ], [ 86.33922373532414, 19.970026129629694 ], [ 86.3399951597046, 19.971252342724974 ], [ 86.341279371019226, 19.971667014784657 ], [ 86.341279371019226, 19.972500877686247 ], [ 86.338363179407636, 19.975417169147484 ], [ 86.337502531451207, 19.975417175392614 ], [ 86.332494932475242, 19.979581948020513 ], [ 86.324165370276774, 19.983693209286233 ], [ 86.323304789781645, 19.98455830822823 ], [ 86.321610283201522, 19.984558347469143 ], [ 86.318306075680937, 19.981276401221578 ], [ 86.315804559597368, 19.980389020627399 ], [ 86.31458277915543, 19.98177580057158 ], [ 86.316277211826829, 19.98333203892275 ], [ 86.316277211826829, 19.985833622819609 ], [ 86.314529220132755, 19.986141317452585 ], [ 86.315001884288066, 19.987915990746856 ], [ 86.318337341913647, 19.987055383056106 ], [ 86.319166741325674, 19.990109869650713 ], [ 86.320664996694063, 19.992054080323662 ], [ 86.322858823633524, 19.993333829752242 ], [ 86.326805135203458, 19.993583574066093 ], [ 86.333337716307625, 19.987055416359613 ], [ 86.33538894986701, 19.987474602050504 ], [ 86.335442409408969, 19.98999838987913 ], [ 86.336218301363715, 19.990805501850545 ], [ 86.337912781921588, 19.990805512512289 ], [ 86.339553750446854, 19.988330700735439 ], [ 86.340360831781595, 19.987474571404935 ], [ 86.34038759760486, 19.98416591447587 ], [ 86.342527966552453, 19.980442591704179 ], [ 86.344583622301144, 19.980777010082651 ], [ 86.345412977353917, 19.984112390636838 ], [ 86.346692719230461, 19.984585021244961 ], [ 86.351691406939267, 19.980415794919335 ], [ 86.355802660806475, 19.980362293771019 ], [ 86.36163966287279, 19.977918680790118 ], [ 86.366607100690985, 19.977887480306617 ], [ 86.367467715696748, 19.978748078169922 ], [ 86.370027206483286, 19.978694627789832 ], [ 86.370803107358597, 19.979555211524769 ], [ 86.37249758503971, 19.979581912971174 ], [ 86.377112694782369, 19.984972992969318 ], [ 86.37789304712193, 19.98664070262112 ], [ 86.377081542278219, 19.990778770252927 ], [ 86.378334507061211, 19.991246931514958 ], [ 86.378722472245471, 19.987501272076795 ], [ 86.379997735003343, 19.986248340794795 ], [ 86.382499314234636, 19.986248349448097 ], [ 86.382499314234636, 19.984527093472224 ], [ 86.378334507061211, 19.979581970631081 ], [ 86.3745576615418, 19.979167289168807 ], [ 86.374579925492412, 19.977441616176506 ], [ 86.379583111963754, 19.970806420462754 ], [ 86.380448142847214, 19.965834559346135 ], [ 86.382445827314257, 19.965446594989842 ], [ 86.383721150238898, 19.966637146679734 ], [ 86.384612929559907, 19.97416859403441 ], [ 86.386222698809391, 19.976638970165901 ], [ 86.399171937432186, 19.987916010357957 ], [ 86.400023573210973, 19.987915984854205 ], [ 86.404999968190282, 19.992080791429707 ], [ 86.407470327979993, 19.99288790346127 ], [ 86.4116351150969, 19.997083949205713 ], [ 86.412500134918034, 19.997083958283152 ], [ 86.417860020705447, 20.000000214158383 ], [ 86.418337122419501, 20.000388089183094 ], [ 86.419135294091532, 20.000388084362871 ], [ 86.419973615550134, 20.001248695199472 ], [ 86.422533135700846, 20.002055795861491 ], [ 86.428749120707224, 20.008334199453291 ], [ 86.428749120707224, 20.00919484416681 ], [ 86.431250665234302, 20.01166518314005 ], [ 86.432084537130009, 20.014140002866441 ], [ 86.434554875460762, 20.019138602226942 ], [ 86.434523681375055, 20.021666975446085 ], [ 86.435388692347701, 20.022474019300937 ], [ 86.436280557604988, 20.027472707772084 ], [ 86.437056438890224, 20.028333321124183 ], [ 86.437056438890224, 20.033305201079468 ], [ 86.437890291331911, 20.034165804335437 ], [ 86.437943796389476, 20.038303883936045 ], [ 86.437078752344732, 20.039971537223828 ], [ 86.436227050770128, 20.040832121342309 ], [ 86.436227050770128, 20.044167541837638 ], [ 86.439531241497505, 20.049166210408625 ], [ 86.441221238869119, 20.053304235576292 ], [ 86.442055099145122, 20.056639646109137 ], [ 86.43955355384908, 20.057473554853281 ], [ 86.445809652940056, 20.061223674052638 ], [ 86.451249724243951, 20.066636950706538 ], [ 86.452025605043048, 20.06997243389571 ], [ 86.4625000523517, 20.079586187388177 ], [ 86.46833260185393, 20.08285918087137 ], [ 86.471663528215842, 20.086274865992682 ], [ 86.472501818795379, 20.086221385511045 ], [ 86.477888454758144, 20.091639182564119 ], [ 86.478753487228644, 20.094140694191193 ], [ 86.483778911255811, 20.099166101771594 ], [ 86.484559223661435, 20.101640899806448 ], [ 86.491279078029507, 20.109167871767198 ], [ 86.491247919332992, 20.109970527665382 ], [ 86.496277714275806, 20.119165233796881 ], [ 86.500442514583881, 20.123307657930315 ], [ 86.506248270476149, 20.13330503491262 ], [ 86.507028616725833, 20.136640405499591 ], [ 86.509583681313373, 20.139971403415458 ], [ 86.512887877754295, 20.146637733318006 ], [ 86.512887877754295, 20.147498331108313 ], [ 86.514577937369225, 20.149112508563618 ], [ 86.514577937369225, 20.15083371315124 ], [ 86.516218835294268, 20.152501468225296 ], [ 86.516218835294268, 20.154169133089777 ], [ 86.518751613754787, 20.158307214753851 ], [ 86.518751613754787, 20.159974895881938 ], [ 86.521226454002644, 20.162498708624163 ], [ 86.521226454002644, 20.163305870450614 ], [ 86.530028647932184, 20.172054626757745 ], [ 86.530809006646976, 20.172054602042028 ], [ 86.541640208338904, 20.181195725525377 ], [ 86.544137253516439, 20.182056397649834 ], [ 86.547468197981644, 20.18541847347343 ], [ 86.548333331798304, 20.185418492460958 ], [ 86.554558229902653, 20.191665720269889 ], [ 86.554192579455346, 20.193752552700907 ], [ 86.552498089143214, 20.19375261985078 ], [ 86.550001002243008, 20.192053678962399 ], [ 86.548310991043437, 20.191193032254976 ], [ 86.545804987869815, 20.191193064760721 ], [ 86.543334607021734, 20.19291872849589 ], [ 86.53910743989303, 20.19288751445826 ], [ 86.537916827677918, 20.191638991059666 ], [ 86.537916827677918, 20.189971215222197 ], [ 86.539138645692773, 20.188722676106707 ], [ 86.542474008876184, 20.188722718986519 ], [ 86.542915481408158, 20.187527679889303 ], [ 86.540779580833217, 20.186252337498914 ], [ 86.536668318535291, 20.185445296553361 ], [ 86.531669652734223, 20.182890186530791 ], [ 86.529556003224258, 20.179166837719603 ], [ 86.524169401175598, 20.173749021894398 ], [ 86.515808577341204, 20.169557490625547 ], [ 86.51372624638789, 20.170110403824133 ], [ 86.512388473157898, 20.171724580704186 ], [ 86.512361721952161, 20.175113557365385 ], [ 86.513944721007235, 20.177053203501842 ], [ 86.515830932709505, 20.177053271545915 ], [ 86.517890975340123, 20.179193631899206 ], [ 86.518751613754787, 20.182471071775392 ], [ 86.520860789404026, 20.184584710487087 ], [ 86.526693297114548, 20.186279159064529 ], [ 86.530389852427135, 20.189944541698999 ], [ 86.530389852427135, 20.190805109950016 ], [ 86.533279393902518, 20.193752620618579 ], [ 86.535005054974661, 20.194555198657035 ], [ 86.543303403858033, 20.194582004059694 ], [ 86.544168533199738, 20.19372137712174 ], [ 86.550001002243008, 20.193721384230631 ], [ 86.553336406133553, 20.195415815812794 ], [ 86.55496847617529, 20.197083515066662 ], [ 86.55583347926148, 20.196222910093653 ], [ 86.559164486075062, 20.196222933768688 ], [ 86.562446364607325, 20.198751265602056 ], [ 86.565001430698416, 20.199558284837931 ], [ 86.573304235849861, 20.207914690172117 ], [ 86.575859358231497, 20.209582388091476 ], [ 86.581665082593915, 20.212057202732773 ], [ 86.584947010888214, 20.214527518361518 ], [ 86.588304695966158, 20.215388096152726 ], [ 86.592473946515582, 20.217943173625997 ], [ 86.596665472569441, 20.222085733040842 ], [ 86.601637427152085, 20.22455600915405 ], [ 86.605833409012078, 20.227886970849198 ], [ 86.610809750443806, 20.230415317842532 ], [ 86.614996875531801, 20.231249185026417 ], [ 86.627504665471875, 20.237861976301247 ], [ 86.629136675189045, 20.237862045383626 ], [ 86.631638231541871, 20.239529734721135 ], [ 86.633279179296153, 20.239556446018092 ], [ 86.635834202448052, 20.241277670704562 ], [ 86.637475164384426, 20.241224185666049 ], [ 86.640806136075057, 20.242887432680146 ], [ 86.646638600663081, 20.246222778047986 ], [ 86.648328637710179, 20.246222784219032 ], [ 86.650834678623326, 20.247890524205214 ], [ 86.654165592895396, 20.248719902661019 ], [ 86.660002548007427, 20.252915966830681 ], [ 86.663329075995492, 20.253723051063158 ], [ 86.665830587575641, 20.255386272716621 ], [ 86.667471549434424, 20.255386266884923 ], [ 86.672447897228707, 20.257919075291461 ], [ 86.679136539828733, 20.2596090588825 ], [ 86.679555740678381, 20.260804078937003 ], [ 86.676224777780362, 20.263332390354574 ], [ 86.675359729317321, 20.265000059708367 ], [ 86.676224777780362, 20.266667791776484 ], [ 86.676193581591235, 20.269111363097238 ], [ 86.672059988281717, 20.272500263749677 ], [ 86.672059988281717, 20.274168021814976 ], [ 86.674971766503873, 20.274582732789824 ], [ 86.676612730704932, 20.27625043301293 ], [ 86.677473300634119, 20.276250424610602 ], [ 86.677887982389208, 20.274975056586712 ], [ 86.677107637091709, 20.274110015006183 ], [ 86.677107637091709, 20.269972023139516 ], [ 86.67919009262917, 20.267916302959776 ], [ 86.681664905942554, 20.267916375880755 ], [ 86.690863978057763, 20.275389825485558 ], [ 86.697525920300038, 20.277891315898088 ], [ 86.70252902168518, 20.280415176187532 ], [ 86.704138731570879, 20.282082903459706 ], [ 86.712472806349737, 20.286220940614861 ], [ 86.716668793955094, 20.287028055931792 ], [ 86.722505771696959, 20.290363430593843 ], [ 86.724137777784804, 20.290390189327713 ], [ 86.72914092691785, 20.292918509147711 ], [ 86.732529851654206, 20.294586250687551 ], [ 86.734170810045185, 20.296249461968991 ], [ 86.736663417344886, 20.297056571016988 ], [ 86.741639810100168, 20.30125254920992 ], [ 86.742500390456271, 20.301252600595177 ], [ 86.744141321374244, 20.302915842276171 ], [ 86.754165419126863, 20.307914500611535 ], [ 86.75585988785393, 20.309528718063902 ], [ 86.765830424726602, 20.315387976627182 ], [ 86.769165806504347, 20.318723316787164 ], [ 86.773361840750439, 20.321251695766477 ], [ 86.7783337297749, 20.326250266681747 ], [ 86.781606688804757, 20.32791804580966 ], [ 86.794555901035054, 20.340858313665603 ], [ 86.796196922284338, 20.344140182321762 ], [ 86.798751973285036, 20.346668529640819 ], [ 86.800392929791258, 20.350833374304887 ], [ 86.802024940692789, 20.352443106872592 ], [ 86.805418312012492, 20.360835071271485 ], [ 86.805418312012492, 20.364166000364747 ], [ 86.80371935678707, 20.364166021409826 ], [ 86.802947990542592, 20.359970017640578 ], [ 86.801668177696172, 20.358779488243851 ], [ 86.801222277755215, 20.360835085791276 ], [ 86.79958134919994, 20.36083512961677 ], [ 86.79958134919994, 20.358306759064426 ], [ 86.798751973285036, 20.356639078675492 ], [ 86.796196922284338, 20.350833298787688 ], [ 86.788718939351327, 20.343306395820147 ], [ 86.78830872207476, 20.339525062370431 ], [ 86.786667818438588, 20.339583033004637 ], [ 86.785026859557078, 20.337054683068143 ], [ 86.783301201831463, 20.337054685613822 ], [ 86.779555498645323, 20.333304609721139 ], [ 86.779555498645323, 20.332470786603537 ], [ 86.776643721632695, 20.3295856825724 ], [ 86.767524872247847, 20.323722031390851 ], [ 86.757500830595632, 20.315387977816638 ], [ 86.754134195795146, 20.315387951139112 ], [ 86.752912404255426, 20.314166139600673 ], [ 86.752943628367873, 20.312444935282421 ], [ 86.750807684303581, 20.310389245135919 ], [ 86.749166746950408, 20.310389238870854 ], [ 86.745835830726875, 20.308775100075124 ], [ 86.742469159672922, 20.307058373962874 ], [ 86.740837150841571, 20.305390640187248 ], [ 86.739998871986515, 20.305390628261932 ], [ 86.732529851654206, 20.298777741896874 ], [ 86.730835418614106, 20.299553688701142 ], [ 86.729974786573223, 20.297029787414274 ], [ 86.72833384101726, 20.297890415028863 ], [ 86.725832289115729, 20.294554978803092 ], [ 86.724137777784804, 20.293752331360533 ], [ 86.718305293736066, 20.2945550119668 ], [ 86.715027863222218, 20.292887278645363 ], [ 86.711670129523498, 20.2920846927768 ], [ 86.709199823334771, 20.290416970528181 ], [ 86.707474174743098, 20.290417010738295 ], [ 86.704138731570879, 20.287888684262974 ], [ 86.70163717313109, 20.287861879845799 ], [ 86.695809154681172, 20.285387102292777 ], [ 86.688331245797883, 20.285445106829904 ], [ 86.686636744183858, 20.286247749580475 ], [ 86.68164254858938, 20.29121960941092 ], [ 86.679970404863013, 20.292084703810907 ], [ 86.676635013509184, 20.292084651292598 ], [ 86.67377673881218, 20.294135862396242 ], [ 86.67377673881218, 20.295000904917753 ], [ 86.675836821793936, 20.297859231844754 ], [ 86.678338388736364, 20.293752393162976 ], [ 86.68164254858938, 20.293752373057131 ], [ 86.684197674660211, 20.291219569996183 ], [ 86.685388223678302, 20.292499352676639 ], [ 86.683693774183695, 20.294942995943227 ], [ 86.683747245191384, 20.300806713261068 ], [ 86.684942337756695, 20.302081977207912 ], [ 86.685807371191729, 20.301279344343833 ], [ 86.689165108412269, 20.301221377627272 ], [ 86.689584223694027, 20.303334992418048 ], [ 86.688005686011977, 20.305109662561488 ], [ 86.689553035986506, 20.306108545660692 ], [ 86.697503570167115, 20.301221348825766 ], [ 86.715772519223592, 20.301221325437588 ], [ 86.717498182805571, 20.302889090152991 ], [ 86.718345445487884, 20.302487796654365 ], [ 86.719192693519432, 20.302081958804347 ], [ 86.721640694302195, 20.302081937436327 ], [ 86.724976098057383, 20.304556744692885 ], [ 86.725832289115729, 20.304556798355318 ], [ 86.728302601190904, 20.307085092678602 ], [ 86.730804180384084, 20.307887757629125 ], [ 86.732088385236693, 20.309140720529776 ], [ 86.730857676800241, 20.311223107651404 ], [ 86.730001496864958, 20.311223165376504 ], [ 86.727941461210804, 20.313278754580786 ], [ 86.72914092691785, 20.315414701775659 ], [ 86.731638011707616, 20.315414660747287 ], [ 86.734968973928105, 20.317082380134345 ], [ 86.735419316804737, 20.316667725844106 ], [ 86.732088385236693, 20.313278805172409 ], [ 86.732088385236693, 20.312471724524624 ], [ 86.734139573943906, 20.310362529036006 ], [ 86.737501753356881, 20.311223133349987 ], [ 86.738335624048204, 20.312083731680783 ], [ 86.739976541220045, 20.312083750357953 ], [ 86.743329802168262, 20.313751447159444 ], [ 86.747499053783528, 20.31708242596028 ], [ 86.750000572198161, 20.317889485237185 ], [ 86.750807684303581, 20.318750092899052 ], [ 86.754134195795146, 20.319583971448065 ], [ 86.760831718842667, 20.324582587617165 ], [ 86.763337770421572, 20.325389659259177 ], [ 86.764947475610867, 20.32705295906797 ], [ 86.768300787324677, 20.328778658916388 ], [ 86.771636153669817, 20.332056021687315 ], [ 86.772501190418112, 20.332056026740833 ], [ 86.776251346121583, 20.335832912068931 ], [ 86.777053960388557, 20.33744265120718 ], [ 86.777031646556182, 20.346695282054696 ], [ 86.774583657474921, 20.348278223097289 ], [ 86.774583657474921, 20.349138845240407 ], [ 86.777883322257722, 20.35166717943958 ], [ 86.777883322257722, 20.354998098059333 ], [ 86.778726165211467, 20.355805190830583 ], [ 86.779586705720916, 20.361664459138684 ], [ 86.780420624992274, 20.362471572806623 ], [ 86.780420624992274, 20.36499992054091 ], [ 86.781196488344847, 20.365802520045246 ], [ 86.782913250108535, 20.370003033566373 ], [ 86.786248614051004, 20.373333983363711 ], [ 86.787889608463573, 20.376638136912529 ], [ 86.787889608463573, 20.378305879077146 ], [ 86.785026859557078, 20.378724967557869 ], [ 86.780830831979088, 20.374582531138088 ], [ 86.777473090477429, 20.372919245413673 ], [ 86.774137739709516, 20.372919220910635 ], [ 86.770775549588365, 20.371220326187583 ], [ 86.769143489064135, 20.369583856264203 ], [ 86.768724364107612, 20.369971768178797 ], [ 86.772055330307097, 20.376638128726032 ], [ 86.774971598781207, 20.379554421362609 ], [ 86.7783337297749, 20.381222129367636 ], [ 86.78166910031058, 20.382029177600266 ], [ 86.784585407348644, 20.385832812196636 ], [ 86.783720354897298, 20.390831474723004 ], [ 86.780808519874711, 20.394554858495908 ], [ 86.77913638645191, 20.39541540302049 ], [ 86.768332001600186, 20.395388634268151 ], [ 86.765830424726602, 20.393720950980377 ], [ 86.764189455044203, 20.393720985621663 ], [ 86.760831718842667, 20.392111255913022 ], [ 86.755806342068439, 20.387054616221874 ], [ 86.752524441076574, 20.385391322457359 ], [ 86.746246021454567, 20.379166436937801 ], [ 86.744970705255156, 20.377057288401797 ], [ 86.74461398520458, 20.380776232621248 ], [ 86.745835830726875, 20.381248847560624 ], [ 86.753304813947906, 20.388722327840636 ], [ 86.755806342068439, 20.389582898621097 ], [ 86.757919975193289, 20.39163852521915 ], [ 86.7586958127862, 20.394974002887064 ], [ 86.760412599231316, 20.396637173413598 ], [ 86.760412599231316, 20.397497834117964 ], [ 86.759195260346416, 20.398692849846547 ], [ 86.756635758165501, 20.39789025082251 ], [ 86.752502192748693, 20.393694197700388 ], [ 86.751222359817248, 20.394166906153494 ], [ 86.752083001670769, 20.395834610921678 ], [ 86.751641558277427, 20.397083084810525 ], [ 86.750000572198161, 20.397083163262195 ], [ 86.748306130469402, 20.3954154126852 ], [ 86.745804602073704, 20.394554813590961 ], [ 86.742888356460767, 20.391611772192803 ], [ 86.739133796732972, 20.382889805137022 ], [ 86.738745800946418, 20.385832790611218 ], [ 86.73955739621384, 20.386639878587417 ], [ 86.73955739621384, 20.388276435313507 ], [ 86.74208126707768, 20.39414011304676 ], [ 86.747084346682243, 20.397471083847584 ], [ 86.746633957741821, 20.400418528555143 ], [ 86.743307472922581, 20.400418557530823 ], [ 86.739998871986515, 20.402915637432496 ], [ 86.735807262227652, 20.402915668121263 ], [ 86.733747163926438, 20.400859944386976 ], [ 86.732057147806302, 20.395861333404046 ], [ 86.730001496864958, 20.39372096092314 ], [ 86.72914092691785, 20.39452803541684 ], [ 86.726639339493161, 20.394528083932983 ], [ 86.725778787208156, 20.393720924899409 ], [ 86.719999776536525, 20.393778923272507 ], [ 86.716637623462617, 20.39622248211592 ], [ 86.715803767042274, 20.396222562640911 ], [ 86.713721328904114, 20.398304947532111 ], [ 86.712080376266286, 20.401667112015186 ], [ 86.712080376266286, 20.403276785363211 ], [ 86.709587746121812, 20.405805165447376 ], [ 86.7079156326554, 20.409140562379328 ], [ 86.709137396043744, 20.409581951596852 ], [ 86.71791736316564, 20.40083321569151 ], [ 86.720864806141705, 20.396249254740773 ], [ 86.725832289115729, 20.396249262447984 ], [ 86.729613582173883, 20.399165505385469 ], [ 86.729613582173883, 20.404971280010969 ], [ 86.732088385236693, 20.409974354042479 ], [ 86.73372045567865, 20.411637673393599 ], [ 86.735419316804737, 20.415833635899222 ], [ 86.735419316804737, 20.424997135846233 ], [ 86.733778400278169, 20.427471891817113 ], [ 86.732886583082674, 20.43166789780209 ], [ 86.731245658384381, 20.434998863396878 ], [ 86.731245658384381, 20.444166794327415 ], [ 86.732864249069976, 20.447502224022845 ], [ 86.732917819983712, 20.454168563628027 ], [ 86.73372045567865, 20.454944461103796 ], [ 86.73372045567865, 20.458333319142856 ], [ 86.735419316804737, 20.461664305179713 ], [ 86.735419316804737, 20.463331957607309 ], [ 86.737051352903904, 20.465806808258034 ], [ 86.737894133265087, 20.469137713877256 ], [ 86.736663417344886, 20.469583679719683 ], [ 86.735834046081038, 20.46872300082007 ], [ 86.735388158245641, 20.469998381917371 ], [ 86.737894133265087, 20.474194398451406 ], [ 86.737894133265087, 20.476669126021175 ], [ 86.735031368306096, 20.478720387863646 ], [ 86.729163185874455, 20.478693575031617 ], [ 86.728302601190904, 20.477886481292082 ], [ 86.715834938065129, 20.477944505295685 ], [ 86.715834938065129, 20.478751544110029 ], [ 86.717475918546953, 20.479554204061881 ], [ 86.720833638318609, 20.479554176897363 ], [ 86.721663033434979, 20.480419293645834 ], [ 86.729163185874455, 20.480419278666446 ], [ 86.730028283895791, 20.481221916289712 ], [ 86.731664797842868, 20.481221861721 ], [ 86.732445119882868, 20.480388095655979 ], [ 86.738304390605592, 20.479585426780549 ], [ 86.742857125925184, 20.474136363801048 ], [ 86.742888356460767, 20.469944865715021 ], [ 86.744163650239187, 20.468749757842048 ], [ 86.745804602073704, 20.468749819576669 ], [ 86.747949434754148, 20.470805433383884 ], [ 86.75035732966785, 20.475804092356377 ], [ 86.750419781137737, 20.477471769293576 ], [ 86.752912404255426, 20.483335485392459 ], [ 86.753755141422403, 20.488334142124248 ], [ 86.755387179335813, 20.490804498314688 ], [ 86.757081682401534, 20.497497661777825 ], [ 86.762084760708333, 20.502500732343194 ], [ 86.762084760708333, 20.504168397176077 ], [ 86.760359058436237, 20.506638811565548 ], [ 86.760412599231316, 20.508306476788771 ], [ 86.7586958127862, 20.51163744350745 ], [ 86.754999235805883, 20.513751033073742 ], [ 86.752502192748693, 20.516221361204106 ], [ 86.743329802168262, 20.518722930468865 ], [ 86.739998871986515, 20.521251224380368 ], [ 86.739133796732972, 20.521251210486241 ], [ 86.737051352903904, 20.523306931773895 ], [ 86.735419316804737, 20.526695808681254 ], [ 86.735419316804737, 20.528305540531228 ], [ 86.731245658384381, 20.532474821707321 ], [ 86.731245658384381, 20.534138049325787 ], [ 86.731638011707616, 20.534610757891141 ], [ 86.732476357065636, 20.533750093568038 ], [ 86.734193066714511, 20.533750128971295 ], [ 86.739976541220045, 20.527890896570714 ], [ 86.740837150841571, 20.527890826952977 ], [ 86.741693294670625, 20.527083756576541 ], [ 86.746633957741821, 20.526249892734619 ], [ 86.749969422927734, 20.524582222496239 ], [ 86.754134195795146, 20.521193309202374 ], [ 86.754972462448848, 20.521193294176587 ], [ 86.757059359437477, 20.519137596593893 ], [ 86.757919975193289, 20.516609346149359 ], [ 86.75955202739334, 20.515026310489105 ], [ 86.75955202739334, 20.513305138918518 ], [ 86.762918595616483, 20.509167088095889 ], [ 86.76542016830237, 20.504168426044146 ], [ 86.766691039311596, 20.502915462765063 ], [ 86.769143489064135, 20.502861906663597 ], [ 86.772055330307097, 20.505804887787857 ], [ 86.772055330307097, 20.507445869913678 ], [ 86.775390746762895, 20.511637421457568 ], [ 86.775390746762895, 20.513305117861268 ], [ 86.778726165211467, 20.5208320778546 ], [ 86.780442860599621, 20.522499811311015 ], [ 86.782083820437421, 20.525835224414507 ], [ 86.796669542092502, 20.540416465147732 ], [ 86.797530149061728, 20.540416485303371 ], [ 86.804999115706465, 20.547082812124085 ], [ 86.809137199151422, 20.549553155828068 ], [ 86.811638776133108, 20.549553200412142 ], [ 86.81500090567252, 20.551220862966357 ], [ 86.817498043835627, 20.553695716658218 ], [ 86.818336294070548, 20.553695687203927 ], [ 86.825836538525152, 20.560415531942844 ], [ 86.830023632560085, 20.562890375383564 ], [ 86.839945149320712, 20.569556682766464 ], [ 86.843360761372935, 20.572887669257582 ], [ 86.850000388349599, 20.576223072432271 ], [ 86.856635508492801, 20.582082337686039 ], [ 86.867110008086001, 20.588275972352896 ], [ 86.864974094812482, 20.588748670662671 ], [ 86.862472508822563, 20.587085399993121 ], [ 86.859970946779896, 20.58708538720844 ], [ 86.858780363044048, 20.588333964671452 ], [ 86.858780363044048, 20.590001703676741 ], [ 86.860831581364081, 20.592944702237904 ], [ 86.862053345437346, 20.590804347359196 ], [ 86.860421283406311, 20.589136569875201 ], [ 86.860831581364081, 20.588748683282255 ], [ 86.863333098981229, 20.588748685757743 ], [ 86.865839156392795, 20.59041639102778 ], [ 86.869112121210364, 20.590416411564313 ], [ 86.880803837077806, 20.59875042818728 ], [ 86.881668921935102, 20.598750418827965 ], [ 86.891670676868472, 20.606192643149313 ], [ 86.894943654406475, 20.6070844767968 ], [ 86.898359367488496, 20.608721011418677 ], [ 86.900802959160615, 20.611249317142239 ], [ 86.901641223063834, 20.611195780117143 ], [ 86.904138337264101, 20.613719649841162 ], [ 86.906639910897127, 20.614526690796289 ], [ 86.908280814700774, 20.616247905111962 ], [ 86.920828745278286, 20.6237214238331 ], [ 86.924971242958762, 20.627056818261199 ], [ 86.931610835882424, 20.63038779103756 ], [ 86.934197124097338, 20.632916021133376 ], [ 86.937470123284598, 20.634583743582048 ], [ 86.940805565561007, 20.637914699423575 ], [ 86.946664804537903, 20.640362746188618 ], [ 86.948301290407116, 20.642026026948486 ], [ 86.950807297511005, 20.642891102308848 ], [ 86.953308819261736, 20.645361409696417 ], [ 86.959970785290196, 20.648750299938811 ], [ 86.965803249189165, 20.653749002138269 ], [ 86.96916987547209, 20.654556049232934 ], [ 86.973303480977378, 20.65708436636675 ], [ 86.978302145193155, 20.659612692325684 ], [ 86.986662940924035, 20.665387193450208 ], [ 86.99835915104255, 20.671193017418361 ], [ 87.000000135974545, 20.672914165516406 ], [ 87.006639678058207, 20.678693181246206 ], [ 87.010001838501751, 20.679553778211403 ], [ 87.011642806418706, 20.68122152286378 ], [ 87.013274866633921, 20.681221503366963 ], [ 87.025862860092644, 20.690416186808172 ], [ 87.028306464731727, 20.692052630110254 ], [ 87.032502478853203, 20.692917699762884 ], [ 87.038308205180115, 20.698723488979041 ], [ 87.039137667850753, 20.698723503422148 ], [ 87.04250425690077, 20.70291503557895 ], [ 87.044943351039834, 20.704582747146365 ], [ 87.046669057901838, 20.704582763877539 ], [ 87.054998638142195, 20.708751976702391 ], [ 87.05916791482467, 20.712890076601024 ], [ 87.064162120454, 20.715413928843521 ], [ 87.065803059827829, 20.715413872534622 ], [ 87.067947903837819, 20.717473997798962 ], [ 87.069579948135882, 20.720804917232609 ], [ 87.069169674846933, 20.722053479426592 ], [ 87.066663676732588, 20.721197312873347 ], [ 87.064162120454, 20.717888685820228 ], [ 87.062530043251414, 20.717888692605385 ], [ 87.05750463900813, 20.715413857629013 ], [ 87.053308684807291, 20.711222376087321 ], [ 87.051636512951887, 20.711222330985688 ], [ 87.050004464950774, 20.709554636080313 ], [ 87.046669057901838, 20.708752036670354 ], [ 87.044943351039834, 20.707026288413743 ], [ 87.041639162624051, 20.706250481535246 ], [ 87.038308205180115, 20.703775607163315 ], [ 87.036636042173782, 20.70377560668371 ], [ 87.035806688641372, 20.702915041109097 ], [ 87.032502478853203, 20.70205440255987 ], [ 87.030807992196415, 20.700386680565696 ], [ 87.029135872045998, 20.700386702713661 ], [ 87.024137241358005, 20.697916409556246 ], [ 87.022447188485359, 20.697055807625279 ], [ 87.02080628558349, 20.698723467183992 ], [ 87.017502107964845, 20.698723450103458 ], [ 87.014135437804697, 20.697055757728084 ], [ 87.010862468472411, 20.697055791927017 ], [ 87.007446795130605, 20.695388045045885 ], [ 87.000000135974545, 20.695388099877722 ], [ 86.99835915104255, 20.695419256958132 ], [ 86.997498525538077, 20.696275384714561 ], [ 86.994163121860325, 20.696275383788379 ], [ 86.992861110299074, 20.69747049746568 ], [ 86.993307001328048, 20.69875020082139 ], [ 87.000000135974545, 20.698723496507256 ], [ 87.006639678058207, 20.698723496141493 ], [ 87.0079194895699, 20.69999878650188 ], [ 87.007446795130605, 20.701251779441488 ], [ 87.005805836141406, 20.701251749702624 ], [ 87.0049987677519, 20.702054427943118 ], [ 86.995804097701722, 20.702054450685218 ], [ 86.995001441043073, 20.702861514133073 ], [ 86.985811267548755, 20.702861531352276 ], [ 86.976670116409878, 20.696275427556134 ], [ 86.974997939569917, 20.695419245642039 ], [ 86.972505259387233, 20.695419285642927 ], [ 86.971662499565227, 20.694554227699861 ], [ 86.964166747494204, 20.69455424310074 ], [ 86.963720891379509, 20.694942149330476 ], [ 86.964942651018248, 20.696275473592614 ], [ 86.97080192992469, 20.696275426911793 ], [ 86.974137276931174, 20.697862876166074 ], [ 86.975858510424246, 20.697862879589639 ], [ 86.978302145193155, 20.700386756749605 ], [ 86.981222812901436, 20.701666511521616 ], [ 86.981222812901436, 20.705001883574091 ], [ 86.978302145193155, 20.707860218801155 ], [ 86.974997939569917, 20.708725233162252 ], [ 86.974137276931174, 20.709581413707468 ], [ 86.964996119002322, 20.709581409194531 ], [ 86.964140013048421, 20.710388465870576 ], [ 86.955003295059115, 20.710388458531828 ], [ 86.954138225214052, 20.711249083411314 ], [ 86.949144077647631, 20.711249133250586 ], [ 86.946638060365132, 20.712890032638917 ], [ 86.940805565561007, 20.712890028692122 ], [ 86.937501305282581, 20.710361763821453 ], [ 86.93586040165394, 20.71036169510651 ], [ 86.928360218153642, 20.705389801663493 ], [ 86.927191880703717, 20.705724263825516 ], [ 86.925613387692266, 20.707445436958441 ], [ 86.925782790163183, 20.710415242904421 ], [ 86.928360218153642, 20.712082955816264 ], [ 86.93164209810773, 20.71289002042478 ], [ 86.934134755804564, 20.714557702463622 ], [ 86.936636303059331, 20.714557770854022 ], [ 86.937501305282581, 20.715413860272822 ], [ 86.941634957690994, 20.715413851524335 ], [ 86.942495514303957, 20.716220966180035 ], [ 86.944136497588573, 20.716220979710197 ], [ 86.945001517959255, 20.715413917773962 ], [ 86.980803687499488, 20.715360410427969 ], [ 86.986662940924035, 20.712916800247729 ], [ 86.990858939030304, 20.712109680532684 ], [ 86.994163121860325, 20.710388471274467 ], [ 86.999166254886802, 20.710388450997488 ], [ 87.000000135974545, 20.711222368413328 ], [ 87.001641064747247, 20.711222373007761 ], [ 87.002501692224072, 20.712082908826119 ], [ 87.003366730913314, 20.712082901354918 ], [ 87.007081167286259, 20.716693676345329 ], [ 87.007081167286259, 20.719944293960115 ], [ 87.0079194895699, 20.720804976271467 ], [ 87.0079194895699, 20.724140370327042 ], [ 87.008722082606113, 20.725000981513315 ], [ 87.008722082606113, 20.726668638606206 ], [ 87.009582735564663, 20.72747129137705 ], [ 87.009582735564663, 20.730806707330018 ], [ 87.011223641527124, 20.734137618749525 ], [ 87.011223641527124, 20.738306894521219 ], [ 87.006224972112534, 20.747501551022843 ], [ 87.004584047607494, 20.749164781257083 ], [ 87.004584047607494, 20.750832557094157 ], [ 87.002862851972679, 20.753360837538416 ], [ 87.002082523694412, 20.759946924215374 ], [ 87.000000135974545, 20.762863210668971 ], [ 86.997864226475471, 20.767469406755055 ], [ 86.995804097701722, 20.769609778097031 ], [ 86.994140831622005, 20.770390147017086 ], [ 86.991670520486721, 20.770390182607642 ], [ 86.990858939030304, 20.771192806551561 ], [ 86.982498110578675, 20.771192777406064 ], [ 86.979140436005153, 20.769583026037029 ], [ 86.977499501246157, 20.769583014936689 ], [ 86.974997939569917, 20.767888605278451 ], [ 86.972505259387248, 20.767861812563115 ], [ 86.969999237038166, 20.766220865200193 ], [ 86.956644233971758, 20.76619412841017 ], [ 86.955832671803165, 20.765418222694521 ], [ 86.94997347897062, 20.765387051264177 ], [ 86.949144077647631, 20.766194137265163 ], [ 86.93497305228523, 20.766194178683286 ], [ 86.934197124097338, 20.767054735306726 ], [ 86.930830496651964, 20.767054700828002 ], [ 86.929969884550701, 20.767915365898279 ], [ 86.929189595195496, 20.767054777271042 ], [ 86.928337897394627, 20.767915319209838 ], [ 86.913328517443517, 20.76791535892913 ], [ 86.9124768454259, 20.767054700016807 ], [ 86.892442087129737, 20.767027940931591 ], [ 86.891670676868472, 20.767888634360791 ], [ 86.88494188783443, 20.768749222993147 ], [ 86.884161559170266, 20.769556299957408 ], [ 86.881668921935102, 20.769556261470562 ], [ 86.880857398414989, 20.770416902422678 ], [ 86.874168735761927, 20.77122399713058 ], [ 86.873361601630151, 20.772084586999661 ], [ 86.869138831820351, 20.772887249344226 ], [ 86.867613854354758, 20.775223835885829 ], [ 86.866387561613308, 20.78183222378593 ], [ 86.867301735105528, 20.78508285505789 ], [ 86.869138831820351, 20.78791445574916 ], [ 86.870833356479707, 20.787914404648074 ], [ 86.878333523788427, 20.792110437036872 ], [ 86.882498336020603, 20.792917543186036 ], [ 86.883278691512572, 20.793720205641531 ], [ 86.886640832265869, 20.793720153375467 ], [ 86.887916110750169, 20.794973163273916 ], [ 86.887055498465514, 20.796636415908488 ], [ 86.887497014601493, 20.797113526131451 ], [ 86.888335279771383, 20.797113573176759 ], [ 86.888723231654751, 20.795780286713288 ], [ 86.891639465246186, 20.793720192923558 ], [ 86.894997200086081, 20.793720170223043 ], [ 86.895857824006555, 20.7928640602671 ], [ 86.90830314474033, 20.792056910022435 ], [ 86.909163761068015, 20.791249784092365 ], [ 86.917524568167451, 20.791276570337534 ], [ 86.918304893355014, 20.790415992562924 ], [ 86.925805112105067, 20.790416001284871 ], [ 86.926665722107998, 20.789555357879376 ], [ 86.934165939961034, 20.789555360555305 ], [ 86.935026553571404, 20.788748272399435 ], [ 86.944189988698284, 20.788748303584029 ], [ 86.947471860271634, 20.787027080730663 ], [ 86.953331128451978, 20.786224406553593 ], [ 86.956644233971758, 20.784556695290849 ], [ 86.96163844338183, 20.782055158269539 ], [ 86.967497743113597, 20.78205511136008 ], [ 86.969557788423558, 20.78497141851134 ], [ 86.969557788423558, 20.786639110692668 ], [ 86.970413950641216, 20.787499714529218 ], [ 86.970413950641216, 20.7933634627686 ], [ 86.969557788423558, 20.794166101615541 ], [ 86.970413950641216, 20.794946400343132 ], [ 86.970413950641216, 20.798335326778457 ], [ 86.97127460360251, 20.799137964599833 ], [ 86.972054898319882, 20.81244391342635 ], [ 86.973722595461894, 20.814972257975334 ], [ 86.973722595461894, 20.819168218443362 ], [ 86.974556460509746, 20.820778008947798 ], [ 86.973695866330957, 20.821638559071353 ], [ 86.973695866330957, 20.825027469293769 ], [ 86.972054898319882, 20.828304960605717 ], [ 86.971252302735294, 20.832469762933258 ], [ 86.968750721277942, 20.837472889315602 ], [ 86.96538406563721, 20.841668920965542 ], [ 86.964554700821438, 20.844999808225065 ], [ 86.962891497873912, 20.846667575384057 ], [ 86.962111130782034, 20.84916907216898 ], [ 86.960831319669978, 20.850390846397456 ], [ 86.958748975718962, 20.850832327665966 ], [ 86.959970785290196, 20.852914723060731 ], [ 86.961250542913859, 20.853307114017305 ], [ 86.960831319669978, 20.85458242514046 ], [ 86.9591681407218, 20.85458247824285 ], [ 86.956666541615505, 20.852914737025657 ], [ 86.953750340661628, 20.853307150962024 ], [ 86.958748975718962, 20.858305829142704 ], [ 86.958748975718962, 20.859166425482975 ], [ 86.961250542913859, 20.861694664487011 ], [ 86.961250542913859, 20.863277670681288 ], [ 86.957527135111306, 20.864557445299234 ], [ 86.955391245909041, 20.866666603724738 ], [ 86.954584170164864, 20.870002038423024 ], [ 86.952078130512518, 20.873332986347936 ], [ 86.951226455301793, 20.878336036460443 ], [ 86.949585484442125, 20.881640219847469 ], [ 86.94708392199054, 20.883307927540972 ], [ 86.947859795426638, 20.885831836327799 ], [ 86.94708392199054, 20.886638955870229 ], [ 86.94708392199054, 20.888306653428252 ], [ 86.947859795426638, 20.889974325946191 ], [ 86.944136497588573, 20.896221515008719 ], [ 86.943275893881122, 20.896221558648151 ], [ 86.941278228356609, 20.898330707881819 ], [ 86.942054118924631, 20.899944901271471 ], [ 86.941278228356609, 20.900805506696134 ], [ 86.941278228356609, 20.905001534681134 ], [ 86.93955254728732, 20.906664756050819 ], [ 86.93955254728732, 20.909193081326741 ], [ 86.937920502487302, 20.911667868380075 ], [ 86.937055431363092, 20.916639773835826 ], [ 86.934607407619268, 20.920835737051572 ], [ 86.929167274820458, 20.928750704410756 ], [ 86.926665722107998, 20.929557715471553 ], [ 86.924583352818914, 20.93161342920207 ], [ 86.92372270565275, 20.93413723903549 ], [ 86.917916949605967, 20.942444573101092 ], [ 86.915410990273742, 20.94744320507526 ], [ 86.912918282259341, 20.952499823828596 ], [ 86.912918282259341, 20.958278868831002 ], [ 86.910385528489314, 20.960807101325933 ], [ 86.909529369244311, 20.962474841419677 ], [ 86.909529369244311, 20.964998660228378 ], [ 86.908753490491677, 20.965805764727524 ], [ 86.90788843139579, 20.974113134541817 ], [ 86.905440380064178, 20.980832937027955 ], [ 86.903723664634384, 20.983303293949451 ], [ 86.902947769084292, 20.98663875024841 ], [ 86.896223456408578, 20.999998150556099 ], [ 86.895447593397634, 21.001639108627675 ], [ 86.893721878868021, 21.004974551390955 ], [ 86.891220324866481, 21.007498385718844 ], [ 86.892080939530416, 21.00830551866942 ], [ 86.892080939530416, 21.010026704852688 ], [ 86.888723231654751, 21.014138002113288 ], [ 86.884611976908346, 21.022472089352874 ], [ 86.879524086069637, 21.026636864220588 ], [ 86.877085005010471, 21.030832904533302 ], [ 86.872086322174454, 21.035831527044689 ], [ 86.871194509641242, 21.039140180118718 ], [ 86.868750952519264, 21.044999404790804 ], [ 86.867471189013187, 21.046194481050037 ], [ 86.865839156392795, 21.046194430831733 ], [ 86.863747811790972, 21.048334803210864 ], [ 86.863747811790972, 21.050805146625869 ], [ 86.862441278366632, 21.052053750214185 ], [ 86.861250678770148, 21.052499622210814 ], [ 86.859582994075396, 21.058305356514406 ], [ 86.857919768588488, 21.059973043594237 ], [ 86.855413760959848, 21.064971711814874 ], [ 86.853772824201471, 21.065805560985883 ], [ 86.854553106737455, 21.069943617730473 ], [ 86.850388341172717, 21.075807330693323 ], [ 86.850441859583853, 21.078331192343761 ], [ 86.847084173146158, 21.081639861428869 ], [ 86.847084173146158, 21.08577790125193 ], [ 86.843717524776636, 21.09002747451914 ], [ 86.842919378850979, 21.091637129101059 ], [ 86.844560299940952, 21.094138691870569 ], [ 86.844560299940952, 21.096609059234041 ], [ 86.84332959518153, 21.097942301421607 ], [ 86.841635104408837, 21.097942347261124 ], [ 86.840417803553038, 21.09913733951722 ], [ 86.840386558891666, 21.102472772798784 ], [ 86.841247158167718, 21.104140518005718 ], [ 86.838754533435164, 21.106668789223317 ], [ 86.837889448093335, 21.109972944417912 ], [ 86.83458527144478, 21.113303931541147 ], [ 86.835441454878847, 21.114164499395208 ], [ 86.835441454878847, 21.115832283907913 ], [ 86.833724707251761, 21.119167657278911 ], [ 86.832917588955624, 21.125802808683208 ], [ 86.832052552804356, 21.126667903484179 ], [ 86.8312543682746, 21.132473643254695 ], [ 86.828306846623221, 21.136250437778099 ], [ 86.827080632297864, 21.136638372169017 ], [ 86.827080632297864, 21.137499027090971 ], [ 86.829171949480141, 21.137918178853045 ], [ 86.830389302501516, 21.139108724007944 ], [ 86.829528663960701, 21.140834450188656 ], [ 86.829582205375573, 21.150831713232115 ], [ 86.830389302501516, 21.151638815674037 ], [ 86.830362493948286, 21.159139048734104 ], [ 86.828721552535924, 21.161667366174992 ], [ 86.827918947087142, 21.165805431275455 ], [ 86.827058341383733, 21.166666027725732 ], [ 86.827058341383733, 21.16919432622425 ], [ 86.823754117326715, 21.173305639803072 ], [ 86.823754117326715, 21.174973272291886 ], [ 86.825386187265181, 21.177501635048316 ], [ 86.825386187265181, 21.179164819984194 ], [ 86.828752804703598, 21.184168016432366 ], [ 86.82961338039253, 21.187498930154135 ], [ 86.834558541796781, 21.196613306195317 ], [ 86.835419167801277, 21.20080491185329 ], [ 86.834612077667245, 21.201665449461693 ], [ 86.834612077667245, 21.205000869952652 ], [ 86.833746995107006, 21.205861501668934 ], [ 86.833746995107006, 21.208305073822117 ], [ 86.832083726235908, 21.212443155485559 ], [ 86.83416609678973, 21.212915814847644 ], [ 86.83458527144478, 21.212443133517532 ], [ 86.834612077667245, 21.207471248318392 ], [ 86.836609712312708, 21.204528261499807 ], [ 86.838330952940439, 21.204528255393335 ], [ 86.838754533435164, 21.206668597563972 ], [ 86.842054291156941, 21.210860191113184 ], [ 86.842054291156941, 21.214110862032662 ], [ 86.841193706192271, 21.215832036226328 ], [ 86.84627704724619, 21.220830710352285 ], [ 86.848725106523972, 21.224973245396548 ], [ 86.852082832499249, 21.229164730435762 ], [ 86.852082832499249, 21.232500135488525 ], [ 86.853300146942885, 21.23288811216171 ], [ 86.854165187230649, 21.231220374296935 ], [ 86.855003493698163, 21.231220386066347 ], [ 86.85708587610884, 21.233302809374649 ], [ 86.857888535198697, 21.236696181171446 ], [ 86.855444995944097, 21.238279148642931 ], [ 86.859582994075396, 21.246666732187638 ], [ 86.860358896379026, 21.250804753837865 ], [ 86.861250678770148, 21.251665361037386 ], [ 86.862084576143261, 21.255807916959018 ], [ 86.864586105619523, 21.257529144369791 ], [ 86.865388793576187, 21.260833306800023 ], [ 86.867890305526615, 21.264110742731813 ], [ 86.867890305526615, 21.264971374262348 ], [ 86.872915747425182, 21.270835072682797 ], [ 86.874556648193803, 21.274165981614033 ], [ 86.874556648193803, 21.276636307884555 ], [ 86.877504114837492, 21.277028743451712 ], [ 86.879586524931071, 21.281639427013644 ], [ 86.886252863678067, 21.289139644593511 ], [ 86.88788489670435, 21.292470604236723 ], [ 86.890386470269505, 21.294998966685338 ], [ 86.890386470269505, 21.296666659030965 ], [ 86.892112150867703, 21.299997598636544 ], [ 86.893753089145889, 21.301665273319102 ], [ 86.89541630772068, 21.305000684502854 ], [ 86.895385098516655, 21.309972599027848 ], [ 86.896196684255429, 21.310779642886722 ], [ 86.896196684255429, 21.313303558337427 ], [ 86.89913969650155, 21.314583271652978 ], [ 86.912111183103818, 21.326640688208229 ], [ 86.913747695441231, 21.329998425291318 ], [ 86.915410990273742, 21.331612572421292 ], [ 86.915410990273742, 21.333333836525927 ], [ 86.913747695441231, 21.333333807287723 ], [ 86.914559278539045, 21.335804167970679 ], [ 86.912111183103818, 21.338332462392724 ], [ 86.913328517443517, 21.338720396912027 ], [ 86.914193631992504, 21.337944502469508 ], [ 86.915834584911238, 21.337944488068658 ], [ 86.91835841313862, 21.336223305679738 ], [ 86.919999377344567, 21.336223339793428 ], [ 86.928694646096872, 21.34413822418454 ], [ 86.931276428169483, 21.348334216929825 ], [ 86.939530231711586, 21.357444156811098 ], [ 86.942107612347385, 21.361640153702815 ], [ 86.949585484442125, 21.369974236532613 ], [ 86.949585484442125, 21.370803680351234 ], [ 86.96041667617591, 21.381666013542667 ], [ 86.96041667617591, 21.38247310947164 ], [ 86.967087510736079, 21.389139462963708 ], [ 86.967087510736079, 21.390000091910149 ], [ 86.992446361507774, 21.415416925672279 ], [ 86.993307001328048, 21.415416934896133 ], [ 87.000000135974545, 21.420388858378232 ], [ 87.001663351499687, 21.422056545716128 ], [ 87.005837050144677, 21.42371981243598 ], [ 87.013306075771723, 21.430417328277649 ], [ 87.024137241358005, 21.437083741339567 ], [ 87.037443187495768, 21.449529078119372 ], [ 87.038308205180115, 21.449529043824111 ], [ 87.044996882364813, 21.455388371912605 ], [ 87.045830727953359, 21.455388299633967 ], [ 87.049942018278344, 21.459553150201163 ], [ 87.050802616205985, 21.459553161314815 ], [ 87.060447693611877, 21.470000779129101 ], [ 87.060447693611877, 21.473331769532379 ], [ 87.059136735606643, 21.474584787067311 ], [ 87.05750463900813, 21.475387370995684 ], [ 87.054971878091237, 21.47538744235105 ], [ 87.054106857083525, 21.476194526367706 ], [ 87.048309988627366, 21.476194494177069 ], [ 87.047498451726099, 21.477055102613448 ], [ 87.039168860125372, 21.47705512289096 ], [ 87.038749707468099, 21.4783304001052 ], [ 87.040832088145422, 21.479583409812527 ], [ 87.047498451726099, 21.479583455243766 ], [ 87.049942018278344, 21.477915725226936 ], [ 87.054138039586732, 21.47791573060427 ], [ 87.05916791482467, 21.482053750320212 ], [ 87.059997320286868, 21.482053726110646 ], [ 87.068335855727639, 21.472917068405454 ], [ 87.075836045102733, 21.472917049495827 ], [ 87.079140229184517, 21.47458476874418 ], [ 87.09163461834828, 21.487030072656253 ], [ 87.092446166366813, 21.487030126436903 ], [ 87.094167412937821, 21.48875135270745 ], [ 87.095023556621484, 21.488751348472483 ], [ 87.102501418625749, 21.496251550877044 ], [ 87.103304098871973, 21.496251494684511 ], [ 87.108748623255551, 21.501638114830836 ], [ 87.108748623255551, 21.502498749525152 ], [ 87.117921034980682, 21.512500537989794 ], [ 87.117921034980682, 21.514137018979429 ], [ 87.116668002347836, 21.515416768166421 ], [ 87.110808758891281, 21.51541677334405 ], [ 87.105836881716499, 21.517887085275287 ], [ 87.101667573432977, 21.522943729563487 ], [ 87.098274233330201, 21.523750781900997 ], [ 87.09541151665357, 21.526613593957375 ], [ 87.092918858335253, 21.530805107636404 ], [ 87.092918858335253, 21.534140554870401 ], [ 87.092111736821124, 21.535001092913191 ], [ 87.092477399985768, 21.537056801487672 ], [ 87.097052446732192, 21.527469733591882 ], [ 87.099134797107212, 21.525418490602476 ], [ 87.101667573432977, 21.524553473709855 ], [ 87.109136623685572, 21.5187477160088 ], [ 87.114166482796108, 21.518747695977204 ], [ 87.115838593370611, 21.520415384885879 ], [ 87.117470671887375, 21.520415442854347 ], [ 87.11833126902512, 21.519554771595242 ], [ 87.122442550449108, 21.520388642593836 ], [ 87.125809196524031, 21.517945041428625 ], [ 87.132497854091426, 21.518720912376796 ], [ 87.132921434548251, 21.518333047409861 ], [ 87.131637209164552, 21.517057705979454 ], [ 87.129996254690653, 21.517057728873947 ], [ 87.129198059557837, 21.516223872045053 ], [ 87.124948582595337, 21.51622382045819 ], [ 87.122496070896361, 21.518747711242252 ], [ 87.120779275427012, 21.518747704410778 ], [ 87.119553041975522, 21.516611814765202 ], [ 87.121635473065055, 21.514556160848301 ], [ 87.122496070896361, 21.514556106610062 ], [ 87.124168192873711, 21.512888480434551 ], [ 87.127525962435215, 21.512946447867179 ], [ 87.130834550655379, 21.51455610927081 ], [ 87.133309389827829, 21.514529423318152 ], [ 87.138334787159906, 21.5170577352512 ], [ 87.144140563505729, 21.521249251921937 ], [ 87.146668886698862, 21.523777539231446 ], [ 87.149973020615775, 21.525360522371827 ], [ 87.15164075075009, 21.525360584965817 ], [ 87.152496924276349, 21.526221149736571 ], [ 87.154137861281157, 21.526221187898429 ], [ 87.15667059625973, 21.527888851497288 ], [ 87.158333830552579, 21.527888864645703 ], [ 87.169196251180438, 21.533721321657644 ], [ 87.17082824374873, 21.533721325378369 ], [ 87.174163697823317, 21.535389027201017 ], [ 87.176665248147046, 21.535389085936018 ], [ 87.177476788205581, 21.536249699820829 ], [ 87.181641567279001, 21.537056731852172 ], [ 87.18250221670317, 21.537917332505952 ], [ 87.184999296369838, 21.537890654125277 ], [ 87.188330254007752, 21.539558294460821 ], [ 87.190836224445832, 21.53955831259368 ], [ 87.191634445775549, 21.540418917260315 ], [ 87.195808163500601, 21.541275120224462 ], [ 87.201225958745596, 21.54499838938122 ], [ 87.202077663105044, 21.546666088698299 ], [ 87.201636155954247, 21.547861173347151 ], [ 87.199995269730408, 21.547861216655914 ], [ 87.198331979649254, 21.546251477817702 ], [ 87.19330656171698, 21.545417602684669 ], [ 87.190002410852017, 21.543749856543254 ], [ 87.184999296369838, 21.542889303866943 ], [ 87.176665248147046, 21.538724439670304 ], [ 87.175024255185136, 21.538724427059631 ], [ 87.174163697823317, 21.537917420332615 ], [ 87.169557442193494, 21.538305272413421 ], [ 87.172857166004505, 21.540833624383218 ], [ 87.176246088946058, 21.546639335285182 ], [ 87.175024255185136, 21.548748571357997 ], [ 87.172531668180099, 21.548748527409511 ], [ 87.172081291096148, 21.54997035727553 ], [ 87.174163697823317, 21.551223373909878 ], [ 87.175835823395616, 21.551223296300609 ], [ 87.176696426386229, 21.552083931559697 ], [ 87.179140052011149, 21.551276862734007 ], [ 87.182439791823484, 21.552891036170276 ], [ 87.184165455830268, 21.552891050020804 ], [ 87.184972533411468, 21.553720389794698 ], [ 87.186689285678852, 21.553720410522299 ], [ 87.187469634653581, 21.554581013443137 ], [ 87.189141821947814, 21.553720397086266 ], [ 87.191634445775549, 21.553720474179645 ], [ 87.194969800731556, 21.555388097684276 ], [ 87.197114669268117, 21.554973426168964 ], [ 87.195830435515617, 21.55372039843683 ], [ 87.19330656171698, 21.552859811839813 ], [ 87.190862984084092, 21.550389515412061 ], [ 87.188330254007752, 21.552057222585109 ], [ 87.184972533411468, 21.552083924443352 ], [ 87.179559185567328, 21.5449716792291 ], [ 87.179969418823603, 21.542889288067961 ], [ 87.186667009354736, 21.544556950460404 ], [ 87.187469634653581, 21.545417558654908 ], [ 87.192495065303731, 21.546278147886685 ], [ 87.19330656171698, 21.547080798861494 ], [ 87.197471390446282, 21.547861205255163 ], [ 87.199995269730408, 21.549582411319435 ], [ 87.201636155954247, 21.549582369766991 ], [ 87.204168932667386, 21.547054117377318 ], [ 87.20997028420399, 21.547054082340473 ], [ 87.210777376877431, 21.547914666809586 ], [ 87.214995676128979, 21.547914647523655 ], [ 87.215807241719062, 21.548695023790469 ], [ 87.219191641069045, 21.548695042486372 ], [ 87.219971984789012, 21.54955559897677 ], [ 87.223276241354512, 21.549555661531823 ], [ 87.224136815811818, 21.55041625805217 ], [ 87.228332802810002, 21.550416266038944 ], [ 87.229108741437372, 21.551223356219548 ], [ 87.236662441882132, 21.552057182006394 ], [ 87.237474014159943, 21.552917819225964 ], [ 87.243364443054318, 21.552917750277803 ], [ 87.245803555095335, 21.554581024474608 ], [ 87.247529256232909, 21.553778392330955 ], [ 87.259163083309105, 21.554554304204579 ], [ 87.259970168375432, 21.555414862833199 ], [ 87.279166613627538, 21.555446088794611 ], [ 87.279973658556742, 21.556248748719074 ], [ 87.307504192476074, 21.55624874613866 ], [ 87.308302332385438, 21.557055867053439 ], [ 87.315780223472416, 21.557082573215752 ], [ 87.316636375228114, 21.556221993295594 ], [ 87.346641673242303, 21.556221976685769 ], [ 87.347502336473624, 21.555361384783097 ], [ 87.349999374784716, 21.555361352428157 ], [ 87.353303576171697, 21.553747219455339 ], [ 87.355836363578462, 21.553747207614855 ], [ 87.356696933039458, 21.552891015400313 ], [ 87.364973043225703, 21.552917818956871 ], [ 87.365838139939157, 21.552057191571365 ], [ 87.37000290680929, 21.552057154273683 ], [ 87.372495560379605, 21.550442969380011 ], [ 87.37666480572824, 21.55041619714347 ], [ 87.379554313505224, 21.553363733402094 ], [ 87.379585508701425, 21.55580729937553 ], [ 87.374970361222964, 21.560418031129039 ], [ 87.37247329634414, 21.561220664631811 ], [ 87.370805583831682, 21.562888328178996 ], [ 87.366636344425373, 21.563748973547572 ], [ 87.364134742987787, 21.565416631251669 ], [ 87.36164209681759, 21.565443382529718 ], [ 87.358306670445913, 21.567053174587262 ], [ 87.355805152486397, 21.567053152346048 ], [ 87.355002520264776, 21.567918247703933 ], [ 87.351693893449934, 21.567918231402007 ], [ 87.350828761699177, 21.568720864945309 ], [ 87.348336162249794, 21.568720869437215 ], [ 87.347471119808262, 21.56961266147972 ], [ 87.341638616786483, 21.570415303177473 ], [ 87.339248514563053, 21.574945774971379 ], [ 87.340501552649087, 21.577750504446247 ], [ 87.345834564476974, 21.579583213041648 ], [ 87.347051965862605, 21.58083180009406 ], [ 87.347502336473624, 21.58291417687488 ], [ 87.349999374784716, 21.578722610982545 ], [ 87.356696933039458, 21.578749408338169 ], [ 87.357477340670258, 21.579556503926195 ], [ 87.365838139939157, 21.579525279184896 ], [ 87.366609533337936, 21.578722636729726 ], [ 87.371634979513686, 21.57872261508837 ], [ 87.373307130220851, 21.577915532985205 ], [ 87.378332535699144, 21.572858882294522 ], [ 87.379197611609129, 21.572916876767117 ], [ 87.38083852371237, 21.571249165391357 ], [ 87.387473663883526, 21.571222361223462 ], [ 87.389168107710034, 21.57208303021693 ], [ 87.392913788325288, 21.575806355991574 ], [ 87.393301722534588, 21.577054900281535 ], [ 87.398331630605313, 21.577915477147183 ], [ 87.401640276905056, 21.579583178037172 ], [ 87.403303479606791, 21.581224122123658 ], [ 87.404975628157501, 21.580359075403983 ], [ 87.408279866856489, 21.581224152544603 ], [ 87.411222874360931, 21.58414044428908 ], [ 87.411245119864077, 21.586664277231449 ], [ 87.412475869780252, 21.587056664963956 ], [ 87.413331988220435, 21.586196099043448 ], [ 87.415833594683377, 21.586249560090177 ], [ 87.426637966684694, 21.592082044281796 ], [ 87.434133727300733, 21.596251295865308 ], [ 87.437531553693702, 21.5945836555263 ], [ 87.439970681068985, 21.597085160500111 ], [ 87.444166693184783, 21.598748399568141 ], [ 87.445807656155253, 21.600389366830921 ], [ 87.448335939494541, 21.600389405576941 ], [ 87.449143086068759, 21.601249987896921 ], [ 87.455804985981445, 21.60122326093072 ], [ 87.456665520800556, 21.602083804714724 ], [ 87.461637472140794, 21.602083871990814 ], [ 87.462502509016545, 21.601223262835717 ], [ 87.465833486906732, 21.601196484215407 ], [ 87.475830799921184, 21.607028993547441 ], [ 87.479139436309993, 21.607889546683491 ], [ 87.479942041504458, 21.608750202733173 ], [ 87.481667712582407, 21.608723469626575 ], [ 87.482474806798294, 21.609584091783486 ], [ 87.484138057881552, 21.609584031091767 ], [ 87.484971927312586, 21.610391135404562 ], [ 87.48580578169458, 21.610391128565372 ], [ 87.48663962102701, 21.610391117330863 ], [ 87.487504719092911, 21.611251771917217 ], [ 87.489167940185723, 21.611251753071532 ], [ 87.492467690838012, 21.612888214268281 ], [ 87.495004905412742, 21.6128882427418 ], [ 87.497475217212099, 21.61452918497665 ], [ 87.502500626320113, 21.615389803698442 ], [ 87.504944258778991, 21.617026246925636 ], [ 87.510834723411563, 21.61789135107221 ], [ 87.511641836353277, 21.618747486739419 ], [ 87.515806586377721, 21.61872078612662 ], [ 87.516609233696286, 21.619581379741451 ], [ 87.51999813559577, 21.619581323185155 ], [ 87.520858758628577, 21.620446395320279 ], [ 87.527471605623674, 21.621222274499289 ], [ 87.528336692941082, 21.622082923668668 ], [ 87.529999951616958, 21.622056143233063 ], [ 87.533304101871849, 21.623723828732928 ], [ 87.535836881660643, 21.623723821997537 ], [ 87.536635105155639, 21.624584447517101 ], [ 87.5400017082885, 21.624557754609285 ], [ 87.540799859542318, 21.625413815764151 ], [ 87.542472023769918, 21.625413864357416 ], [ 87.546668087020294, 21.627915368973412 ], [ 87.548309031714837, 21.627915448478589 ], [ 87.557472454817116, 21.636195933708088 ], [ 87.557891594522715, 21.633279702504446 ], [ 87.559198091129204, 21.632084627451508 ], [ 87.567474195332949, 21.632053484107391 ], [ 87.568334835411463, 21.632887337625426 ], [ 87.573302297793205, 21.632887276434644 ], [ 87.576615399918779, 21.634581748624736 ], [ 87.582496920185989, 21.634581762975056 ], [ 87.58330405786684, 21.63536213268867 ], [ 87.587500010134121, 21.635415589588778 ], [ 87.588280376913517, 21.63622273499189 ], [ 87.594969066893739, 21.637056575542861 ], [ 87.59583408978402, 21.637917185102385 ], [ 87.598357921911628, 21.637885934708269 ], [ 87.599165081753057, 21.638751061141164 ], [ 87.6, 21.63875106828327 ], [ 87.6, 21.7 ], [ 87.225, 21.7 ], [ 86.85, 21.7 ], [ 86.475, 21.7 ], [ 86.1, 21.7 ], [ 85.725, 21.7 ], [ 85.35, 21.7 ], [ 84.975, 21.7 ], [ 84.6, 21.7 ], [ 84.6, 19.05 ] ] ] } }
]
}
