{
"type": "FeatureCollection",
"name": "site_buffers",
"crs": { "type": "name", "properties": { "name": "urn:ogc:def:crs:OGC:1.3:CRS84" } },
"features": [
{ "type": "Feature", "properties": { "site_id": "RUS", "site_name": "Rushikulya river mouth", "role": "mass_nesting", "radius_km": 1, "area_km2": 3.14 }, "geometry": { "type": "Polygon", "coordinates": [ [ [ 85.111898676061386, 19.406884019379778 ], [ 85.11186305803507, 19.405998217576666 ], [ 85.111736107051854, 19.405119993677332 ], [ 85.111519047184586, 19.404257805391943 ], [ 85.11121397022238, 19.403419955863558 ], [ 85.110823815472372, 19.402614513712116 ], [ 85.110352341404663, 19.401849235341853 ], [ 85.109804089415221, 19.401131490259999 ], [ 85.109184340057439, 19.400468190125174 ], [ 85.108499062164995, 19.399865722208141 ], [ 85.107754855356873, 19.399329887904692 ], [ 85.106958886478878, 19.398865846891905 ], [ 85.106118820593309, 19.398478067464495 ], [ 85.105242747181634, 19.398170283528572 ], [ 85.104339102269492, 19.39794545866593 ], [ 85.103416587223109, 19.397805757614105 ], [ 85.102484084997556, 19.397752525435958 ], [ 85.101550574641635, 19.397786274578866 ], [ 85.100625044880601, 19.397906679947504 ], [ 85.099716407607161, 19.398112582037527 ], [ 85.098833412111148, 19.398401998099711 ], [ 85.097984560872391, 19.398772141227234 ], [ 85.097178027725022, 19.399219447182549 ], [ 85.096421579180102, 19.399739608705918 ], [ 85.095722499662244, 19.400327616975936 ], [ 85.09508752137927, 19.400977809823477 ], [ 85.094522759499299, 19.401683926235684 ], [ 85.094033653259189, 19.402439166626078 ], [ 85.093624913571276, 19.403236258291386 ], [ 85.093300477633576, 19.40406752542572 ], [ 85.093063470981292, 19.40492496301886 ], [ 85.092916177346325, 19.405800313927855 ], [ 85.092860016616441, 19.40668514838049 ], [ 85.092895531108439, 19.407570945145725 ], [ 85.093022380289327, 19.40844917358972 ], [ 85.093239343998405, 19.409311375827674 ], [ 85.093544334141924, 19.410149248180318 ], [ 85.093934414749086, 19.41095472115061 ], [ 85.094405830199094, 19.411720037149948 ], [ 85.094954041348615, 19.412437825225044 ], [ 85.095573769213715, 19.413101172065073 ], [ 85.096259045786681, 19.413703688604411 ], [ 85.097003271499204, 19.414239571578744 ], [ 85.097799278779021, 19.414703659440587 ], [ 85.098639401088064, 19.415091482094866 ], [ 85.09951554677653, 19.415399303974279 ], [ 85.10041927704124, 19.41562416003886 ], [ 85.101341887235918, 19.415763884352032 ], [ 85.102274490748968, 19.415817130956992 ], [ 85.103208104639222, 19.41578338685197 ], [ 85.104133736202584, 19.415662976938652 ], [ 85.105042469634228, 19.415457060896074 ], [ 85.105925551948928, 19.415167622009626 ], [ 85.106774477330532, 19.414797448063247 ], [ 85.107581069095588, 19.414350104478864 ], [ 85.108337558480429, 19.413829899962252 ], [ 85.109036659490968, 19.413241844987031 ], [ 85.10967163909342, 19.412591603517182 ], [ 85.110236382068976, 19.411885438434094 ], [ 85.110725449907264, 19.41113015119463 ], [ 85.111134133171717, 19.410333016302459 ], [ 85.111458496832626, 19.409501711224653 ], [ 85.111695418132328, 19.40864424242956 ], [ 85.111842616619015, 19.407768868259229 ], [ 85.111898676061386, 19.406884019379778 ] ] ] } },
{ "type": "Feature", "properties": { "site_id": "DEV", "site_name": "Devi river mouth", "role": "mass_nesting", "radius_km": 1, "area_km2": 3.14 }, "geometry": { "type": "Polygon", "coordinates": [ [ [ 86.391681897644602, 19.961807011433919 ], [ 86.391639274157455, 19.96092114968631 ], [ 86.391505024269051, 19.96004350370535 ], [ 86.391280442364391, 19.959182525538029 ], [ 86.390967692669577, 19.958346506578657 ], [ 86.390569788356046, 19.957543497729638 ], [ 86.390090562475308, 19.956781231882928 ], [ 86.389534631005517, 19.956067049468157 ], [ 86.388907348367553, 19.955407827783564 ], [ 86.388214755839954, 19.954809914789575 ], [ 86.3874635233703, 19.954279068001572 ], [ 86.386660885343773, 19.953820399069176 ], [ 86.385814570927195, 19.95343832457505 ], [ 86.384932729658942, 19.953136523525675 ], [ 86.384023853000244, 19.952917901942776 ], [ 86.38309669260201, 19.952784564895417 ], [ 86.382160176072645, 19.952737796241525 ], [ 86.381223321056083, 19.952778046273203 ], [ 86.38029514844547, 19.952904927384647 ], [ 86.379384595565767, 19.953117217804053 ], [ 86.378500430159505, 19.953412873353734 ], [ 86.377651166001584, 19.953789047125337 ], [ 86.376844980953891, 19.954242116881169 ], [ 86.376089638246995, 19.954767719918316 ], [ 86.375392411745793, 19.955360795060582 ], [ 86.374760015917218, 19.956015631374747 ], [ 86.374198541174295, 19.956725923142887 ], [ 86.373713395218488, 19.957484830562517 ], [ 86.37330925094551, 19.958285045590888 ], [ 86.372990001416895, 19.959118862300443 ], [ 86.372758722331952, 19.959978251068787 ], [ 86.372617642362925, 19.960854935889564 ], [ 86.372568121640612, 19.961740474060392 ], [ 86.372610638599724, 19.96262633748098 ], [ 86.372744785312776, 19.963503994778964 ], [ 86.372969271359736, 19.964364993472447 ], [ 86.373281936198296, 19.965201041378315 ], [ 86.373679769917956, 19.966004086481757 ], [ 86.374158942180102, 19.966766394497579 ], [ 86.374714839067124, 19.967480623375621 ], [ 86.375342107487128, 19.968139894032085 ], [ 86.376034706707969, 19.968737856624578 ], [ 86.376785966524835, 19.9692687517317 ], [ 86.377588651501625, 19.969727465846912 ], [ 86.378435030667248, 19.970109580651236 ], [ 86.379316951995023, 19.970411415589076 ], [ 86.38022592094714, 19.970630063336401 ], [ 86.381153182325846, 19.970763417818649 ], [ 86.382089804642135, 19.970810194507891 ], [ 86.383026766186745, 19.970769942803223 ], [ 86.383955041972726, 19.970643050374754 ], [ 86.384865690710114, 19.970430739429187 ], [ 86.385749940972659, 19.97013505493301 ], [ 86.38659927572445, 19.96975884490698 ], [ 86.387405514390721, 19.969305732982036 ], [ 86.388160891680371, 19.968780083481615 ], [ 86.388858132399548, 19.968186959367472 ], [ 86.389490521534881, 19.967532073454802 ], [ 86.390051968930564, 19.966821733367556 ], [ 86.390537067936094, 19.9660627807651 ], [ 86.390941147460026, 19.965262525426535 ], [ 86.39126031692912, 19.964428674828511 ], [ 86.391491503720673, 19.96356925989576 ], [ 86.391632482709213, 19.962692557640089 ], [ 86.391681897644602, 19.961807011433919 ] ] ] } },
{ "type": "Feature", "properties": { "site_id": "GAH_ISL", "site_name": "Gahirmatha - Abdul Kalam (Wheeler) Island", "role": "mass_nesting_primary", "radius_km": 1, "area_km2": 3.14 }, "geometry": { "type": "Polygon", "coordinates": [ [ [ 87.09349654615211, 20.757775042585404 ], [ 87.093449743721536, 20.756889395378558 ], [ 87.093310877378073, 20.756012327583026 ], [ 87.093081286019853, 20.755152285618387 ], [ 87.092763182153959, 20.754317551801901 ], [ 87.092359630534432, 20.753516164599066 ], [ 87.091874518599283, 20.752755841227088 ], [ 87.091312518993476, 20.752043903356221 ], [ 87.090679044539911, 20.751387206623377 ], [ 87.089980196093421, 20.750792074636028 ], [ 87.08922270378045, 20.750264238100886 ], [ 87.08841386219072, 20.74980877966242 ], [ 87.08756146014457, 20.749430084981512 ], [ 87.086673705711902, 20.749131800524165 ], [ 87.085759147203362, 20.748916798465956 ], [ 87.084826590893499, 20.748787149049328 ], [ 87.083885016266223, 20.748744100659245 ], [ 87.082943489596616, 20.748788067808611 ], [ 87.082011076699459, 20.748918627148875 ], [ 87.081096755681827, 20.749134521544015 ], [ 87.080209330538224, 20.749433672168973 ], [ 87.079357346417595, 20.749813198516211 ], [ 87.078549007376637, 20.750269446118295 ], [ 87.07779209740913, 20.750798021720179 ], [ 87.077093905510893, 20.75139383556343 ], [ 87.076461155500439, 20.752051150375923 ], [ 87.075899941270777, 20.752763636596516 ], [ 87.07541566809563, 20.753524433303731 ], [ 87.075013000555515, 20.754326214262939 ], [ 87.074695817585933, 20.755161258456869 ], [ 87.074467175081722, 20.756021524421211 ], [ 87.074329276419064, 20.756898727670393 ], [ 87.074283451181216, 20.757784420468322 ], [ 87.074330142294457, 20.758670073176621 ], [ 87.074468901700939, 20.759547156397037 ], [ 87.074698394612057, 20.76040722311722 ], [ 87.075016412303953, 20.761241990068577 ], [ 87.075419893334271, 20.762043417512256 ], [ 87.075904952977652, 20.762803786684607 ], [ 87.076466920598705, 20.763515774155302 ], [ 87.077100384603668, 20.764172522381337 ], [ 87.077799244539236, 20.764767705776386 ], [ 87.078556769837476, 20.765295591658159 ], [ 87.079365664641045, 20.765751095485829 ], [ 87.080218138084604, 20.766129829854236 ], [ 87.081105979354518, 20.766428146772203 ], [ 87.082020636803037, 20.766643172816718 ], [ 87.082953300353381, 20.766772836823549 ], [ 87.08389498640048, 20.766815889847038 ], [ 87.084836624387407, 20.766771917196216 ], [ 87.085769144221558, 20.766641342431065 ], [ 87.086683563686307, 20.766425423280378 ], [ 87.087571075003879, 20.766126239520549 ], [ 87.088423129713718, 20.765746672932469 ], [ 87.089231521046443, 20.765290379530011 ], [ 87.089988462998718, 20.764761754328291 ], [ 87.090686665345558, 20.764165888991844 ], [ 87.091319403866905, 20.763508522771659 ], [ 87.091880585111312, 20.762795987204438 ], [ 87.092364805072606, 20.762035145108012 ], [ 87.092767401215312, 20.761233324461312 ], [ 87.093084497347633, 20.760398247806762 ], [ 87.09331304091188, 20.759537957856118 ], [ 87.093450832334057, 20.75866074001674 ], [ 87.09349654615211, 20.757775042585404 ] ] ] } },
{ "type": "Feature", "properties": { "site_id": "GAH_MAIN", "site_name": "Gahirmatha - mainland coast point", "role": "sensitivity_check", "radius_km": 1, "area_km2": 3.14 }, "geometry": { "type": "Polygon", "coordinates": [ [ [ 87.017880574522138, 20.742211269553593 ], [ 87.017834217267236, 20.741325599248615 ], [ 87.017695801134067, 20.740448467873055 ], [ 87.017466660685557, 20.739588322464392 ], [ 87.017149004088182, 20.738753446341395 ], [ 87.0167458917917, 20.737951879344795 ], [ 87.016261207007503, 20.73719134042739 ], [ 87.015699618272137, 20.736479153338436 ], [ 87.015066534457702, 20.735822176117178 ], [ 87.014368052663514, 20.735226735073521 ], [ 87.013610899491894, 20.734698563890582 ], [ 87.012802366273334, 20.734242748434625 ], [ 87.011950238865097, 20.733863677802663 ], [ 87.011062722698341, 20.733565002078191 ], [ 87.010148363794528, 20.733349597200917 ], [ 87.009215966510396, 20.73321953728794 ], [ 87.008274508801719, 20.733176074672301 ], [ 87.007333055819771, 20.733219627850545 ], [ 87.006400672670424, 20.733349777455185 ], [ 87.005486337173778, 20.733565270290601 ], [ 87.004598853461829, 20.733864031393686 ], [ 87.003746767244451, 20.734243184003464 ], [ 87.002938283557242, 20.734699077247715 ], [ 87.00218118778173, 20.735227321280881 ], [ 87.001482770697123, 20.735822829535465 ], [ 87.000849758284005, 20.736479867681187 ], [ 87.000288246955535, 20.737192108821294 ], [ 86.999803644839758, 20.737952694395638 ], [ 86.999400619678383, 20.738754300205045 ], [ 86.999083053844828, 20.739589206922144 ], [ 86.998854006915636, 20.740449374410609 ], [ 86.998715686157382, 20.741326519137946 ], [ 86.998669425214914, 20.742212193936879 ], [ 86.99871567120843, 20.74309786934796 ], [ 86.998853980366064, 20.743975015759997 ], [ 86.999083022235851, 20.744835185557662 ], [ 86.999400592439628, 20.745670094484929 ], [ 86.999803633847776, 20.746471701440417 ], [ 87.000288265973012, 20.747232285935738 ], [ 87.000849822302484, 20.747944522470089 ], [ 87.001482895209435, 20.748601551104073 ], [ 87.002181388013696, 20.74919704355203 ], [ 87.00293857368986, 20.749725264155401 ], [ 87.003747159658303, 20.750181125148718 ], [ 87.004599358034582, 20.75056023568499 ], [ 87.005486960660321, 20.750858944147229 ], [ 87.006401418191473, 20.75107437333763 ], [ 87.007333922481067, 20.751204448204756 ], [ 87.008275491461205, 20.751247915840889 ], [ 87.009217055704539, 20.751204357556535 ], [ 87.010149545829421, 20.751074192915418 ], [ 87.011063979904804, 20.750858675691006 ], [ 87.011951550010323, 20.750559881783648 ], [ 87.012803707116063, 20.750180689214986 ], [ 87.013612243462234, 20.749724750392819 ], [ 87.014369371643625, 20.749196456914252 ], [ 87.015067799635716, 20.748600897246934 ], [ 87.015700801038747, 20.747943807696913 ], [ 87.016262279862673, 20.747231517136381 ], [ 87.016746829228566, 20.746470886024682 ], [ 87.0171497834219, 20.745669240310956 ], [ 87.017467262796472, 20.744834300856095 ], [ 87.017696211098325, 20.743974109054495 ], [ 87.017834424851117, 20.743096949373019 ], [ 87.017880574522138, 20.742211269553593 ] ] ] } },
{ "type": "Feature", "properties": { "site_id": "RUS", "site_name": "Rushikulya river mouth", "role": "mass_nesting", "radius_km": 5, "area_km2": 78.41 }, "geometry": { "type": "Polygon", "coordinates": [ [ [ 85.149976690684127, 19.407275783371063 ], [ 85.149797565376346, 19.402846725438938 ], [ 85.14916179309354, 19.398455652767318 ], [ 85.148075533265384, 19.39414485207017 ], [ 85.146549281696565, 19.389955833625152 ], [ 85.144597768163706, 19.385928931705731 ], [ 85.142239813368178, 19.382102916459917 ], [ 85.139498146668217, 19.378514620961028 ], [ 85.136399186383557, 19.375198587005507 ], [ 85.132972784818875, 19.372186733049062 ], [ 85.12925194048232, 19.369508047456417 ], [ 85.125272480281012, 19.367188309994201 ], [ 85.121072714754391, 19.365249844224174 ], [ 85.116693069655241, 19.363711303155643 ], [ 85.112175697405789, 19.362587490197523 ], [ 85.107564072141273, 19.361889217111692 ], [ 85.102902572202581, 19.361623200316245 ], [ 85.098236054054567, 19.361791996521028 ], [ 85.093609421683354, 19.362393978303327 ], [ 85.089067195567026, 19.363423349851313 ], [ 85.084653085316518, 19.364870202721015 ], [ 85.080409570049284, 19.366720611071766 ], [ 85.076377490486664, 19.368956765470283 ], [ 85.072595656657711, 19.371557143986031 ], [ 85.0691004749482, 19.374496718946158 ], [ 85.065925598055728, 19.377747197378053 ], [ 85.063101601199591, 19.3812772928462 ], [ 85.060655687692147, 19.385053026089757 ], [ 85.05861142670534, 19.389038051590862 ], [ 85.05698852576721, 19.393194006954442 ], [ 85.055802640198635, 19.397480881759442 ], [ 85.055065221354553, 19.401857402352583 ], [ 85.054783405168735, 19.406281428899202 ], [ 85.054959942120192, 19.410710360884412 ], [ 85.055593169345613, 19.415101547172409 ], [ 85.056677025220296, 19.419412696683036 ], [ 85.058201106321988, 19.423602285733956 ], [ 85.060150766283911, 19.427629958123738 ], [ 85.062507255636348, 19.431456914095648 ], [ 85.065247901337329, 19.435046284424896 ], [ 85.068346324303647, 19.43836348600993 ], [ 85.071772692879605, 19.441376555523721 ], [ 85.075494009825007, 19.444056457888372 ], [ 85.079474430070789, 19.446377366577352 ], [ 85.083675606183633, 19.448316913019266 ], [ 85.088057058202793, 19.449856402675142 ], [ 85.092576564267091, 19.450980995682301 ], [ 85.097190568239924, 19.451679850301961 ], [ 85.101854600367844, 19.451946227767973 ], [ 85.106523706875223, 19.451777557510084 ], [ 85.111152884306563, 19.451175462110967 ], [ 85.115697514378382, 19.450145741748678 ], [ 85.120113795096998, 19.448698318271983 ], [ 85.124359163934983, 19.446847139449709 ], [ 85.128392708939359, 19.444610044324008 ], [ 85.132175563765045, 19.442008590977096 ], [ 85.135671282790028, 19.439067848387015 ], [ 85.138846192668197, 19.435816154397788 ], [ 85.141669716912745, 19.432284842158086 ], [ 85.144114670373725, 19.4285079376886 ], [ 85.146157520773301, 19.424521831516675 ], [ 85.147778614791605, 19.420364927566936 ], [ 85.148962366546655, 19.41607727271397 ], [ 85.14969740668468, 19.411700170587814 ], [ 85.149976690684127, 19.407275783371063 ] ] ] } },
{ "type": "Feature", "properties": { "site_id": "DEV", "site_name": "Devi river mouth", "role": "mass_nesting", "radius_km": 5, "area_km2": 78.41 }, "geometry": { "type": "Polygon", "coordinates": [ [ [ 86.429909675110494, 19.961933912026151 ], [ 86.429695492622784, 19.957504621489033 ], [ 86.42902321214963, 19.953116506132186 ], [ 86.427899345203613, 19.948811821751256 ], [ 86.426334749653222, 19.944632017354905 ], [ 86.424344523837561, 19.940617336277874 ], [ 86.421947859997331, 19.936806429020017 ], [ 86.419167858478019, 19.933235981524401 ], [ 86.416031304531316, 19.929940362454687 ], [ 86.412568409891264, 19.926951292846443 ], [ 86.408812521631972, 19.924297541289221 ], [ 86.404799801116809, 19.922004647549496 ], [ 86.400568876127366, 19.920094677270043 ], [ 86.396160469507009, 19.918586010083281 ], [ 86.391617007870749, 19.91749316315563 ], [ 86.386982214115164, 19.916826651841507 ], [ 86.382300687611206, 19.916592888771561 ], [ 86.377617476073951, 19.916794122333371 ], [ 86.37297764318015, 19.917428415128196 ], [ 86.368425836042277, 19.918489662607069 ], [ 86.364005856648703, 19.919967651707541 ], [ 86.359760241343821, 19.92184815893205 ], [ 86.355729852347281, 19.924113086934078 ], [ 86.351953485201918, 19.926740638311149 ], [ 86.348467495893757, 19.929705524950023 ], [ 86.345305451206073, 19.932979210929417 ], [ 86.342497805656762, 19.936530186665159 ], [ 86.340071608121463, 19.940324271683213 ], [ 86.338050240971057, 19.944324943130471 ], [ 86.336453194249145, 19.948493686885271 ], [ 86.335295877088143, 19.952790367909984 ], [ 86.334589468213892, 19.957173616300786 ], [ 86.334340807019728, 19.961601225334935 ], [ 86.334552326307843, 19.96603055769657 ], [ 86.335222027398487, 19.970418955978744 ], [ 86.336343497903201, 19.974724153513179 ], [ 86.337905972047253, 19.978904681571045 ], [ 86.339894433015971, 19.982920269007789 ], [ 86.342289756390755, 19.986732230492713 ], [ 86.34506889333953, 19.990303839569457 ], [ 86.348205091835723, 19.993600682935483 ], [ 86.351668153805235, 19.996590992506238 ], [ 86.355424725743774, 19.999245952041075 ], [ 86.359438620014657, 20.001539975351605 ], [ 86.363671163729691, 20.003450953386203 ], [ 86.368081571838786, 20.004960467784926 ], [ 86.372627340810851, 20.006053968823423 ], [ 86.377264659079543, 20.006720916010078 ], [ 86.38194883025821, 20.006954879963882 ], [ 86.386634704998201, 20.006753604577391 ], [ 86.391277117277184, 20.006119028856638 ], [ 86.395831320858235, 20.005057268223307 ], [ 86.400253421658888, 20.003578555460162 ], [ 86.404500801810229, 20.001697141874747 ], [ 86.408532531270609, 19.999431159644619 ], [ 86.412309762983952, 19.996802446685699 ], [ 86.415796107739553, 19.993836335750199 ], [ 86.41895798509465, 19.990561409808461 ], [ 86.421764946962043, 19.987009226095704 ], [ 86.424189970739747, 19.983214011507812 ], [ 86.426209719163822, 19.979212332306563 ], [ 86.427804764397479, 19.975042741340985 ], [ 86.42895977422431, 19.970745406206472 ], [ 86.42966365858797, 19.966361721943851 ], [ 86.429909675110494, 19.961933912026151 ] ] ] } },
{ "type": "Feature", "properties": { "site_id": "GAH_ISL", "site_name": "Gahirmatha - Abdul Kalam (Wheeler) Island", "role": "mass_nesting_primary", "radius_km": 5, "area_km2": 78.41 }, "geometry": { "type": "Polygon", "coordinates": [ [ [ 87.131922697986255, 20.75774984347855 ], [ 87.131687572928101, 20.753321663942305 ], [ 87.130992172611727, 20.748936480597457 ], [ 87.129843232556667, 20.744636519523731 ], [ 87.128251853027137, 20.740463182719449 ], [ 87.126233390776704, 20.736456649725774 ], [ 87.123807309972776, 20.732655491138072 ], [ 87.120996993781532, 20.729096297708534 ], [ 87.11782951846395, 20.725813328590437 ], [ 87.114335392185865, 20.722838182087347 ], [ 87.110548261072807, 20.720199492051954 ], [ 87.106504585345732, 20.71792265283144 ], [ 87.102243288649518, 20.716029575381473 ], [ 87.097805383933789, 20.714538476872033 ], [ 87.093233579460431, 20.713463705787682 ], [ 87.088571868694672, 20.712815604186343 ], [ 87.083865107983584, 20.712600408426304 ], [ 87.079158586037408, 20.712820189305319 ], [ 87.074497589303704, 20.713472832180599 ], [ 87.069926967362008, 20.714552057259084 ], [ 87.065490702466079, 20.716047479865122 ], [ 87.061231487323653, 20.717944710113294 ], [ 87.057190315128125, 20.720225491039031 ], [ 87.05340608574528, 20.722867873873899 ], [ 87.049915231810346, 20.72584642879832 ], [ 87.046751368308449, 20.7291324891656 ], [ 87.04394496899576, 20.732694426871237 ], [ 87.041523072771597, 20.736497956242239 ], [ 87.039509022834181, 20.740506463546787 ], [ 87.037922241149076, 20.744681358976933 ], [ 87.036778040429212, 20.748982447738658 ], [ 87.036087475474289, 20.753368316696687 ], [ 87.035857235346583, 20.757796732868119 ], [ 87.03608957747322, 20.762225049940394 ], [ 87.036782304366383, 20.76661061890686 ], [ 87.037928783244496, 20.770911198868607 ], [ 87.039518008424935, 20.775085364043857 ], [ 87.041534705944485, 20.779092903057681 ], [ 87.043959479453406, 20.782895206654004 ], [ 87.046768996024255, 20.786455640078636 ], [ 87.049936210125153, 20.78973989652604 ], [ 87.053430623628898, 20.792716328221321 ], [ 87.057218579372176, 20.795356251922552 ], [ 87.061263585444166, 20.797634225873431 ], [ 87.06552666707563, 20.799528295511163 ], [ 87.069966742722954, 20.801020205536499 ], [ 87.074541020696529, 20.802095576278685 ], [ 87.079205412475787, 20.802744042635247 ], [ 87.083914958683636, 20.802959354230492 ], [ 87.088624263564611, 20.802739435815198 ], [ 87.093287933724298, 20.802086407317592 ], [ 87.097861016844789, 20.801006563350043 ], [ 87.102299436090448, 20.799510312371797 ], [ 87.106560415963074, 20.797612076102244 ], [ 87.11060289545172, 20.795330150166848 ], [ 87.114387924452174, 20.792686527336176 ], [ 87.117879039600496, 20.789706685082212 ], [ 87.121042615873492, 20.786419339523 ], [ 87.123848190553161, 20.782856168152232 ], [ 87.126268756430591, 20.779051504051921 ], [ 87.128281021432116, 20.775042004560849 ], [ 87.129865632186281, 20.770866297616042 ], [ 87.131007359407818, 20.76656460919752 ], [ 87.131695243352027, 20.762178375484968 ], [ 87.131922697986255, 20.75774984347855 ] ] ] } },
{ "type": "Feature", "properties": { "site_id": "GAH_MAIN", "site_name": "Gahirmatha - mainland coast point", "role": "sensitivity_check", "radius_km": 5, "area_km2": 78.41 }, "geometry": { "type": "Polygon", "coordinates": [ [ [ 87.056302863876581, 20.742202982675732 ], [ 87.056069965252505, 20.737774683695424 ], [ 87.05537681559818, 20.733389178566938 ], [ 87.054230128772218, 20.729088696608738 ], [ 87.052640983386667, 20.724914644967427 ], [ 87.050624714758314, 20.720907210187317 ], [ 87.048200766036601, 20.717104971649839 ], [ 87.045392499986832, 20.71354453058763 ], [ 87.042226973277593, 20.710260158224795 ], [ 87.038734675473563, 20.707283466407745 ], [ 87.034949235263355, 20.704643103872517 ], [ 87.030907096756337, 20.702364481046747 ], [ 87.026647168959869, 20.700469526009851 ], [ 87.022210451794592, 20.698976473935954 ], [ 87.017639642221496, 20.6978996920238 ], [ 87.012978724236675, 20.697249541579129 ], [ 87.008272546636718, 20.697032278560837 ], [ 87.003566392569425, 20.697249993536271 ], [ 86.998905544959669, 20.697900591616271 ], [ 86.994334851936969, 20.698977812560592 ], [ 86.989898296392454, 20.700471290862655 ], [ 86.98563857375413, 20.702366655242823 ], [ 86.981596681995427, 20.704645666604421 ], [ 86.977811527780048, 20.707286393140819 ], [ 86.974319552498599, 20.710263420927838 ], [ 86.971154381770418, 20.713548097996942 ], [ 86.968346501768849, 20.717108809564213 ], [ 86.96592296548009, 20.720911281791476 ], [ 86.963907131730195, 20.724918911180961 ], [ 86.962318439509232, 20.729093116457438 ], [ 86.96117221979334, 20.733393709573079 ], [ 86.960479546713543, 20.737779282283476 ], [ 86.960247129549657, 20.742207604589723 ], [ 86.96047724664119, 20.746636031222504 ], [ 86.961167721908154, 20.751021912262384 ], [ 86.962311944266943, 20.755323003944891 ], [ 86.963898929813567, 20.759497875692112 ], [ 86.965913426232547, 20.763506309443589 ], [ 86.968336058479494, 20.767309687428057 ], [ 86.971143514380643, 20.770871364624636 ], [ 86.974308768401073, 20.7741570223053 ], [ 86.977801341455574, 20.777134999229609 ], [ 86.981587594278039, 20.779776597275564 ], [ 86.985631051530973, 20.782056358535506 ], [ 86.98989275352848, 20.783952311180574 ], [ 86.994331632168425, 20.785446181699051 ], [ 86.998904907425484, 20.786523571439744 ], [ 87.00356850054861, 20.787174095738358 ], [ 87.00827745993702, 20.787391484268952 ], [ 87.012986395540139, 20.787173641640798 ], [ 87.017649917540055, 20.786522667648693 ], [ 87.022223075031746, 20.785444836979025 ], [ 87.026661790415844, 20.783950538569815 ], [ 87.030923285262901, 20.782054175217041 ], [ 87.03496649349448, 20.779774024407406 ], [ 87.038752457855708, 20.777132061735948 ], [ 87.042244705822711, 20.774153748630848 ], [ 87.045409601297123, 20.770867786454737 ], [ 87.048216668683679, 20.767305839377432 ], [ 87.050638886224647, 20.763502228717048 ], [ 87.052652945772849, 20.759493601720632 ], [ 87.054239476519825, 20.755318578000818 ], [ 87.055383230553602, 20.751017377057675 ], [ 87.056073228497866, 20.74663143049403 ], [ 87.056302863876581, 20.742202982675732 ] ] ] } },
{ "type": "Feature", "properties": { "site_id": "RUS", "site_name": "Rushikulya river mouth", "role": "mass_nesting", "radius_km": 10, "area_km2": 313.65 }, "geometry": { "type": "Polygon", "coordinates": [ [ [ 85.197575489307994, 19.40775427853492 ], [ 85.197214651383959, 19.398896045862532 ], [ 85.195940565869677, 19.39011402274955 ], [ 85.193765649075146, 19.381492777693371 ], [ 85.190710984404873, 19.37311531737128 ], [ 85.186806114052189, 19.365062288058848 ], [ 85.18208874976601, 19.357411200258031 ], [ 85.176604405653677, 19.350235683950821 ], [ 85.170405956705721, 19.343604781583796 ], [ 85.163553127411291, 19.337582285512632 ], [ 85.156111915467463, 19.332226126197391 ], [ 85.148153956172251, 19.327587816944217 ], [ 85.139755833619546, 19.323711960441607 ], [ 85.130998345286741, 19.320635821744776 ], [ 85.12196572701464, 19.318388971726044 ], [ 85.112744845725487, 19.31699300433824 ], [ 85.103424367503521, 19.316461330337741 ], [ 85.094093908874243, 19.316799049390987 ], [ 85.084843179260801, 19.318002901749182 ], [ 85.075761122668695, 19.320061299926714 ], [ 85.06693506665269, 19.322954440066997 ], [ 85.058449886552822, 19.326654491930952 ], [ 85.050387192850238, 19.331125865704539 ], [ 85.042824549288866, 19.336325553100401 ], [ 85.035834729137619, 19.342203539528903 ], [ 85.029485016631028, 19.348703283444181 ], [ 85.023836560226698, 19.355762258335236 ], [ 85.018943783857964, 19.36331255223752 ], [ 85.01485386184244, 19.371281519091482 ], [ 85.011606262536404, 19.379592475776743 ], [ 85.009232365203161, 19.38816543820823 ], [ 85.007755153897534, 19.396917889498209 ], [ 85.007188991460595, 19.405765572869623 ], [ 85.007539475977453, 19.414623301754439 ], [ 85.008803381278511, 19.423405779329531 ], [ 85.010968682271184, 19.432028419633198 ], [ 85.014014665078989, 19.440408162370332 ], [ 85.017912121146807, 19.448464273554414 ], [ 85.022623623652692, 19.456119124249955 ], [ 85.028103883755477, 19.463298939870011 ], [ 85.034300183412824, 19.469934512748562 ], [ 85.041152880734288, 19.475961871045183 ], [ 85.048595983097158, 19.481322897447228 ], [ 85.056557782558158, 19.485965891608714 ], [ 85.064961547449826, 19.489846070801974 ], [ 85.07372626346374, 19.492926003852251 ], [ 85.082767417003211, 19.49517597407127 ], [ 85.091997813139244, 19.49657426759768 ], [ 85.101328420135317, 19.497107384282174 ], [ 85.110669232220189, 19.496770169016354 ], [ 85.119930142090482, 19.495565862188769 ], [ 85.129021814516634, 19.493506068750445 ], [ 85.137856552410966, 19.49061064617781 ], [ 85.146349146792801, 19.486907512423542 ], [ 85.154417702254463, 19.482432375738028 ], [ 85.161984429789129, 19.477228389016233 ], [ 85.168976399185141, 19.471345732069196 ], [ 85.175326243616297, 19.464841125928601 ], [ 85.180972809557971, 19.457777283958027 ], [ 85.185861745728715, 19.450222305160739 ], [ 85.189946025389403, 19.442249015633426 ], [ 85.193186397017229, 19.433934264613399 ], [ 85.195551759104276, 19.425358181998817 ], [ 85.197019455599317, 19.416603404583316 ], [ 85.197575489307994, 19.40775427853492 ] ] ] } },
{ "type": "Feature", "properties": { "site_id": "DEV", "site_name": "Devi river mouth", "role": "mass_nesting", "radius_km": 10, "area_km2": 313.65 }, "geometry": { "type": "Polygon", "coordinates": [ [ [ 86.477694795071372, 19.962080960883295 ], [ 86.477263768328967, 19.953222430827616 ], [ 86.4759166325194, 19.944446491648222 ], [ 86.473666509402122, 19.935837643500722 ], [ 86.470535206186156, 19.927478764214886 ], [ 86.466553000273763, 19.919450312317107 ], [ 86.461758343058648, 19.911829553804306 ], [ 86.456197485804225, 19.904689820051779 ], [ 86.449924031347663, 19.898099803923117 ], [ 86.442998416052305, 19.892122900771746 ], [ 86.435487327063555, 19.886816600583433 ], [ 86.427463060503868, 19.882231937012634 ], [ 86.419002826768534, 19.878412998517508 ], [ 86.410188009551547, 19.875396506203767 ], [ 86.401103385637299, 19.873211462352032 ], [ 86.39183631283602, 19.871878872932953 ], [ 86.382475893717483, 19.871411546714842 ], [ 86.373112123006564, 19.871813972846436 ], [ 86.363835026644068, 19.873082278058902 ], [ 86.354733800587653, 19.875204263883109 ], [ 86.345895957427899, 19.878159523526442 ], [ 86.337406488826602, 19.881919637305614 ], [ 86.329347051645527, 19.88644844479348 ], [ 86.321795185427575, 19.891702391116052 ], [ 86.314823568618664, 19.897630944136825 ], [ 86.308499320578832, 19.904177078595072 ], [ 86.302883356028602, 19.911277822629518 ], [ 86.298029798112466, 19.918864861523971 ], [ 86.293985455739772, 19.926865192962833 ], [ 86.290789370287072, 19.935201827586866 ], [ 86.288472436118852, 19.943794528198385 ], [ 86.287057098711045, 19.952560580583611 ], [ 86.286557133447403, 19.961415588603661 ], [ 86.286977507410072, 19.970274285956233 ], [ 86.288314325705841, 19.979051356832262 ], [ 86.290554863069076, 19.987662257586233 ], [ 86.293677680664203, 19.996024031508718 ], [ 86.297652827185942, 20.004056108835123 ], [ 86.302442122529442, 20.011681084246408 ], [ 86.307999521486494, 20.018825464315196 ], [ 86.314271554122669, 20.02542037762322 ], [ 86.321197838717168, 20.031402240621464 ], [ 86.328711662406633, 20.036713372719891 ], [ 86.336740623978073, 20.0413025545759 ], [ 86.345207332611196, 20.045125524095283 ], [ 86.354030155786035, 20.048145405261284 ], [ 86.36312400905328, 20.050333065560501 ], [ 86.372401179922349, 20.051667398472734 ], [ 86.381772177758052, 20.052135528227538 ], [ 86.391146601298573, 20.051732934796458 ], [ 86.400434015218011, 20.050463497877672 ], [ 86.409544827058326, 20.048339459431713 ], [ 86.418391155850927, 20.045381305133166 ], [ 86.426887683835218, 20.041617565906353 ], [ 86.43495248286176, 20.037084541503429 ], [ 86.442507807336426, 20.031825948852994 ], [ 86.449480845916725, 20.025892498647995 ], [ 86.455804424607521, 20.019341404345464 ], [ 86.461417654413879, 20.012235828410581 ], [ 86.466266517288432, 20.004644271246207 ], [ 86.470304384751302, 19.996639908801647 ], [ 86.473492464253809, 19.988299885344365 ], [ 86.475800169095194, 19.979704568301933 ], [ 86.477205408475911, 19.970936772435167 ], [ 86.477694795071372, 19.962080960883295 ] ] ] } },
{ "type": "Feature", "properties": { "site_id": "GAH_ISL", "site_name": "Gahirmatha - Abdul Kalam (Wheeler) Island", "role": "mass_nesting_primary", "radius_km": 10, "area_km2": 313.65 }, "geometry": { "type": "Polygon", "coordinates": [ [ [ 87.179955291134149, 20.757706263404383 ], [ 87.179482259765891, 20.748850051139367 ], [ 87.178088790531433, 20.740080078719753 ], [ 87.175788456792134, 20.731480782920769 ], [ 87.172603553007534, 20.723134943489413 ], [ 87.16856487464625, 20.715122887345331 ], [ 87.163711416924798, 20.707521716853567 ], [ 87.158089995451618, 20.700404569528047 ], [ 87.151754792571623, 20.693839916208596 ], [ 87.144766833882997, 20.687890904373127 ], [ 87.137193400027755, 20.682614752805765 ], [ 87.129107379436277, 20.678062203344076 ], [ 87.120586568229825, 20.674277034880454 ], [ 87.111712923950492, 20.671295644197965 ], [ 87.102571780191909, 20.66914669758626 ], [ 87.09325102954466, 20.66785085651339 ], [ 87.083840282544685, 20.66742057993093 ], [ 87.074430010520231, 20.667860005068725 ], [ 87.065110680372086, 20.669164907838702 ], [ 87.055971889390705, 20.671322743219751 ], [ 87.04710150821424, 20.674312765245855 ], [ 87.038584839961359, 20.678106225472362 ], [ 87.030503803433803, 20.682666648058134 ], [ 87.022936148075956, 20.687950178880492 ], [ 87.015954708103735, 20.693906005401058 ], [ 87.009626702874257, 20.700476843331213 ], [ 87.004013090163454, 20.707599485510837 ], [ 86.99916797855245, 20.715205407819514 ], [ 86.995138104599505, 20.723221426391255 ], [ 86.991962379894929, 20.73157039990641 ], [ 86.989671512465591, 20.740171970293741 ], [ 86.988287706318957, 20.748943334794806 ], [ 86.987824442197464, 20.757800042027093 ], [ 86.988286341859336, 20.766656804434227 ], [ 86.98966911741752, 20.775428319334765 ], [ 86.991959606460156, 20.784030090677437 ], [ 86.995135892852161, 20.792379243582456 ], [ 86.999167512285894, 20.800395323796366 ], [ 87.004015740816101, 20.808001074312504 ], [ 87.009633963790932, 20.815123181610112 ], [ 87.01596812178451, 20.821692984241075 ], [ 87.022957229356038, 20.827647136842529 ], [ 87.030533961715577, 20.832928223073363 ], [ 87.038625303675587, 20.837485311459012 ], [ 87.047153254619275, 20.841274448677822 ], [ 87.05603558262905, 20.844259085428565 ], [ 87.065186620399729, 20.846410430675874 ], [ 87.074518095117725, 20.847707730772534 ], [ 87.083939984124527, 20.848138470696874 ], [ 87.093361387907805, 20.847698495412853 ], [ 87.102691411776561, 20.846392050150609 ], [ 87.111840047484108, 20.84423173920899 ], [ 87.1207190460633, 20.841238403689392 ], [ 87.129242773232988, 20.837440919373293 ], [ 87.137329038921777, 20.832875916746453 ], [ 87.144899892733278, 20.827587425940905 ], [ 87.151882377539351, 20.821626450105054 ], [ 87.15820923383346, 20.815050471413006 ], [ 87.163819547995615, 20.807922894581264 ], [ 87.168659338208613, 20.800312433365509 ], [ 87.172682072414176, 20.792292446058415 ], [ 87.175849113399082, 20.783940226494781 ], [ 87.178130086846323, 20.775336257488544 ], [ 87.179503168966889, 20.76656343397477 ], [ 87.179955291134149, 20.757706263404383 ] ] ] } },
{ "type": "Feature", "properties": { "site_id": "GAH_MAIN", "site_name": "Gahirmatha - mainland coast point", "role": "sensitivity_check", "radius_km": 10, "area_km2": 313.65 }, "geometry": { "type": "Polygon", "coordinates": [ [ [ 87.10433068302558, 20.742180552647 ], [ 87.103862105900191, 20.733324091610385 ], [ 87.102473137002022, 20.724553465917033 ], [ 87.100177306409677, 20.715953119192477 ], [ 87.096996865406595, 20.707605841831807 ], [ 87.092962566800267, 20.699591975077837 ], [ 87.088113364059623, 20.691988639137662 ], [ 87.08249603234438, 20.684868992698821 ], [ 87.076164715218965, 20.67830153089017 ], [ 87.069180401519347, 20.672349428351765 ], [ 87.061610337472416, 20.667069933636959 ], [ 87.05352737974556, 20.662513820672888 ], [ 87.045009295628674, 20.658724902456893 ], [ 87.036138017016256, 20.655739611572145 ], [ 87.026998855261652, 20.653586651470782 ], [ 87.01767968431588, 20.652286721803144 ], [ 87.008270099838342, 20.651852320373106 ], [ 86.998860562174315, 20.652287623578822 ], [ 86.989541531232675, 20.653588446460589 ], [ 86.980402601367416, 20.655742282730682 ], [ 86.971531644365925, 20.658728424409848 ], [ 86.963013968577968, 20.662518159947968 ], [ 86.954931502079901, 20.667075048969135 ], [ 86.947362007561196, 20.672355271060553 ], [ 86.940378336345915, 20.678308045326112 ], [ 86.934047728620783, 20.684876116755643 ], [ 86.928431166537322, 20.69199630482618 ], [ 86.923582786389787, 20.699600109156925 ], [ 86.91954935554682, 20.707614366491352 ], [ 86.9163698192352, 20.715961952782521 ], [ 86.914074921644172, 20.724562523716912 ], [ 86.912686905142223, 20.733333286631087 ], [ 86.912219290679445, 20.742189796459567 ], [ 86.912676741694312, 20.751046768104157 ], [ 86.914055013059667, 20.759818897437647 ], [ 86.916340985794548, 20.768421683051088 ], [ 86.919512787445768, 20.776772240825217 ], [ 86.923539997210682, 20.784790103453897 ], [ 86.928383934041193, 20.792397997171939 ], [ 86.933998025145186, 20.799522588139901 ], [ 86.9403282514957, 20.80609519121408 ], [ 86.947313666177578, 20.81205243417871 ], [ 86.954886980656809, 20.817336870936504 ], [ 86.962975213356216, 20.821897537639749 ], [ 86.971500394273406, 20.825690446292505 ], [ 86.980380318788349, 20.828679010960229 ], [ 86.989529343289959, 20.83083440238001 ], [ 86.998859214805677, 20.832135827466356 ], [ 87.008279926456694, 20.832570730946657 ], [ 87.017700590283695, 20.832134917129011 ], [ 87.027030318802588, 20.830832590595893 ], [ 87.036179106555011, 20.828676315420136 ], [ 87.045058702918752, 20.825686893307719 ], [ 87.053583467537635, 20.82189316187511 ], [ 87.061671199916134, 20.817331715059318 ], [ 87.06924393500158, 20.812046548427581 ], [ 87.07622869693931, 20.806088632892568 ], [ 87.082558203629731, 20.799515421040766 ], [ 87.088171515236454, 20.79239029093846 ], [ 87.093014620381737, 20.784781932885327 ], [ 87.097040954414013, 20.776763685133922 ], [ 87.100211844833581, 20.768412825079558 ], [ 87.102496879707331, 20.759809822843515 ], [ 87.103874195683801, 20.75103756452183 ], [ 87.10433068302558, 20.742180552647 ] ] ] } }
]
}
